NPI,Name,Telephone,City,State2,Zip5,address,match,lat,lon
1548468614,DIMENSION PROSTHETICS & ORTHOTICS,5103243400,UNION CITY,CA,94587,"33374 DOWE AVE, UNION CITY, CA, 94587",True,37.60105923300006,-122.04352153999997
1952507303,"SOUND BALANCE AUDIOLOGY, INC",7607217417,OCEANSIDE,CA,92054,"2420 VISTA WAY, OCEANSIDE, CA, 92054",True,33.18324116100007,-117.33439986799999
1609934660,COLLIER REHABILITATION SYSTEMS,9259431119,PLEASANT HILL,CA,94523,"3161 PUTNAM BLVD, PLEASANT HILL, CA, 94523",True,37.933073798000066,-122.073511441
1518006741,"NEW DAY'S DAWN, INC.",6195964042,SANTEE,CA,92071,"10159 MISSION GORGE RD, SANTEE, CA, 92071",True,32.83852728200003,-116.97627558599999
1902863202,SUPER CARE INC,6268542283,CITY OF INDUSTRY,CA,91744,"16017 VALLEY BLVD, CITY OF INDUSTRY, CA, 91744",False,,
1386652774,"HANGER PROSTHETICS & ORTHOTICS WEST, INC.",5306764856,CAMERON PARK,CA,95682,"3460 ROBIN LN, CAMERON PARK, CA, 95682",True,38.65601919000005,-120.96822059699997
1124198114,"CHANNEL ISLANDS PROSTHETICS,INC",8054865531,OXNARD,CA,93030,"520 W 5TH ST, OXNARD, CA, 93030",True,34.19769815400008,-119.18267828499995
1710050307,"LIFE-CARE HOME HEALTH & MEDICAL SUPPLIES, INC",3104790094,WEST LOS ANGELES,CA,90025,"11843 WILSHIRE BLVD, WEST LOS ANGELES, CA, 90025",True,34.04725617500003,-118.46358946699996
1639237233,HANGER PROSTHETICS & ORTHOTICS WEST INC,5308771805,PARADISE,CA,95969,"7056 A SKYWAY, PARADISE, CA, 95969",True,39.76507603600004,-121.61804114499995
1477742369,BOUTIQUE DE LINGERIE,8316350722,HOLLISTER,CA,95023,"650 SAN BENITO ST, HOLLISTER, CA, 95023",True,36.849729541000045,-121.40220856599996
1396773958,YOUNG'S ORTHOPEDICS. INC,9094740500,SAN BERNARDINO,CA,92405,"2299 N ARROWHEAD AVE, SAN BERNARDINO, CA, 92405",True,34.136888347000024,-117.28967222099999
1477732865,HAIR DESIGN CENTER,3238564247,HOLLYWOOD,CA,90028,"1320 N HIGHLAND AVE, HOLLYWOOD, CA, 90028",True,34.09483555300005,-118.33861666499996
1659551703,"ALTHEA'S, INC.",8056433537,VENTURA,CA,93003,"2320 E MAIN ST, VENTURA, CA, 93003",True,34.27634002000008,-119.26495509299997
1518147289,"PRECISION MEDICAL, INC.",6198231534,SAN DIEGO,CA,92115,"4424 44TH ST, SAN DIEGO, CA, 92115",True,32.757668559000024,-117.10019304899998
1598946410,DIRECT THERAPY,9096248244,CLAREMONT,CA,91711,"689 W FOOTHILL BLVD, CLAREMONT, CA, 91711",True,34.107203404000074,-117.70530544899998
1073794897,SAVAKOR INC.,3137644976,COMPTON,CA,90220,"637 W COMPTON BLVD, COMPTON, CA, 90220",True,33.895921884000074,-118.23482817299998
1730212036,WELCH'S SHOE REPAIR,9516582383,HEMET,CA,92544,"41819 E FLORIDA AVE, HEMET, CA, 92544",True,33.747736159000056,-116.93188194699997
1659553907,PVO HELTHCARE INC,9096297615,POMONA,CA,91767,"367 ERVILLA ST, POMONA, CA, 91767",True,34.077838204000045,-117.74721541799994
1457533531,"COASTAL ORTHOTIC AND PROSTHETIC SERVICES, INC",7074453111,EUREKA,CA,95501,"2365 HARRISON AVE, EUREKA, CA, 95501",True,40.78628557300004,-124.13960237399999
1063695633,ITALY SHOES AND BOUTIQUE,5628604634,CERRITOS,CA,90703,"11815 SOUTH ST, CERRITOS, CA, 90703",True,33.858465755000054,-118.08149464499996
1346423639,"STEVEN R. YOUNG, OCULARIST, INC.",5108362123,OAKLAND,CA,94609,"411 30TH ST, OAKLAND, CA, 94609",True,37.81905962900004,-122.26494382099997
1699821058,CENTER FOR INDEPEND REHAB,5308229400,YUBA CITY,CA,95991,"1134 PLUMAS STREET, YUBA CITY, CA, 95991",True,39.14586644900004,-121.61762591399997
1730362427,OPTION ONE PATIENT CARE,8185312731,GLENDALE,CA,91202,"1207 VALLEY VIEW RD, GLENDALE, CA, 91202",True,34.16398765300005,-118.26012069999996
1952346298,"TERRAPIN TECHNOLOGIES, INC",3102123067,TORRANCE,CA,90501,"1508 CABRILLO AVE, TORRANCE, CA, 90501",True,33.83369115200003,-118.31431052499994
1639354004,"PACIFIC FOOT & ANKLE SPECIALISTS, INC.",7145420656,SANTA ANA,CA,92701,"1125 E 17TH ST, SANTA ANA, CA, 92701",True,33.76004482800005,-117.85519424299997
1154352391,"BAKERSFIELD PROSTHETICS & ORTHOTICS CENTER, INC.",6612812127,BAKERSFIELD,CA,93301,"2023 TRUXTUN AVE, BAKERSFIELD, CA, 93301",True,35.37335643200004,-119.02500750399997
1730364878,"EMPICARE, INC.",7072243674,NAPA,CA,94558,"3434 VILLA LN, NAPA, CA, 94558",True,38.32528432100003,-122.29395256499998
1689856833,TIMOTHY D. BULGARELLI,6612548461,SANTA CLARITA,CA,91321,"24811 SAN FERNANDO RD, SANTA CLARITA, CA, 91321",False,,
1578566816,SUNNY HILLS ORTHOPEDIC SERVICES INC.,7147384769,FULLERTON,CA,92832,"332 E COMMONWEALTH AVE, FULLERTON, CA, 92832",True,33.87036795200004,-117.91907123799996
1649456187,"VENTURA PROSTHETICS& ORTHOTICS, INC.",7143573940,ORANGE,CA,92865,"2324 N BATAVIA ST, ORANGE, CA, 92865",True,33.82739129200007,-117.86199735699995
1447389291,"NOSE BRACE, INC.",4082494047,SAN JOSE,CA,95128,"650 S WINCHESTER BLVD, SAN JOSE, CA, 95128",True,37.31533210200007,-121.95009416099998
1043353972,MIKE T MARTINEZ,9164881478,SACRAMENTO,CA,95825,"2222 WATT AVE, SACRAMENTO, CA, 95825",True,38.60573200300007,-121.38296634199997
1346426954,LAURENCE OF OAKLAND,9258272062,CONCORD,CA,94520,"2190 MERIDIAN PARK BLVD, CONCORD, CA, 94520",True,37.977437406000035,-122.05760118899997
1568509669,"DYNAMICS ORTHOTICS & PROSTHETICS, INC.",2133839212,LOS ANGELES,CA,90006,"1830 W OLYMPIC BLVD, LOS ANGELES, CA, 90006",True,34.05039228100003,-118.27690855699996
1417126780,WNC MEDICAL SUPPLY LLC,5107965555,FREMONT,CA,94538,"3705 BEACON AVE, FREMONT, CA, 94538",False,,
1356451462,MEACHAM ENT INC,5594384488,FRESNO,CA,93711,"323 W CROMWELL, FRESNO, CA, 93711",True,36.84755755000003,-119.79661487199996
1366611212,UNIVERSAL SUMMIT GROUP INC.,4083358744,BAKERSFIELD,CA,93313,"5880 DISTRICT BLVD, BAKERSFIELD, CA, 93313",True,35.31309018800005,-119.06843553399995
1376712224,MOSSPARK ASSOCIATES INC,4083358744,SAN JOSE,CA,95116,"1664 ALUM ROCK AVE, SAN JOSE, CA, 95116",True,37.35169217600003,-121.85785030199997
1295904308,"PARK MEDICAL PHYSICAL THERAPY, PROF CORP",6192972544,SAN DIEGO,CA,92110,"4120 W POINT LOMA BLVD, SAN DIEGO, CA, 92110",True,32.75366408000008,-117.223778875
1083755052,"HBM CREATIVE - FS PASADENA, INC.",6263583668,MONROVIA,CA,91016,"939 W HUNTINGTON DR, MONROVIA, CA, 91016",True,34.140206860000035,-118.01971092499997
1538338033,"ALL CITIES ORTHOPEDICS, INC",3106389806,LYNWOOD,CA,90262,"11101 ATLANTIC AVE, LYNWOOD, CA, 90262",True,33.927523043000065,-118.18489170999999
1730253444,CURECARE MEDICAL EQUIP & SUP,5626975727,LA HABRA,CA,90631,"631 S PALM, LA HABRA, CA, 90631",True,33.929934385000024,-117.92434526599999
1366620015,FERNANDO J NUNEZ,5628624711,DOWNEY,CA,90241,"9102 FIRESTONE BLVD, DOWNEY, CA, 90241",False,,
1518138080,ALLAM DALATI,7074651111,CRESCENT CITY,CA,95531,"1080 MASON MALL, CRESCENT CITY, CA, 95531",False,,
1336317403,NKEM IHEANAJU,3102215310,CARSON,CA,90745,"1300 E 223RD ST, CARSON, CA, 90745",True,33.82418053600003,-118.25012188099998
1255387981,WEST COAST PROSTHETICS LLC,9166897528,SACRAMENTO,CA,95823,"95 QUINTA CT, SACRAMENTO, CA, 95823",True,38.47317239300003,-121.41908981699999
1053378802,"FREMONT ARTIFICIAL LIMB & BRACE, INC.",5107923475,FREMONT,CA,94538,"1999 MOWRY AVE, FREMONT, CA, 94538",True,37.55805724900006,-121.98078217499994
1467461343,RICK L WOODLAND,4086170066,LOS ALTOS,CA,94024,"2310 HOMESTEAD RD, LOS ALTOS, CA, 94024",True,37.33788728900004,-122.06759044499995
1720261118,RUSSELL A. GROOTEGOED DPM,3108333583,SAN PEDRO,CA,90731,"601 W 9TH ST, SAN PEDRO, CA, 90731",True,33.736039799000025,-118.29030858899995
1841211992,WEST COAST ORTHOTIC & PROSTHETIC SERVICES INC,2099424166,STOCKTON,CA,95204,"3215 N CALIFORNIA ST, STOCKTON, CA, 95204",True,37.98097165100006,-121.29327539099995
1831394808,FOOTCARE SPECIALISTS INC,6503437775,SAN MATEO,CA,94401,"39 N SAN MATEO DR, SAN MATEO, CA, 94401",True,37.56748399400004,-122.32731028699999
1306018171,NORTHBAY PROSTHETICS AND ORTHOTICS LLC,7072547010,NAPA,CA,94558,"3260 BEARD RD, NAPA, CA, 94558",True,38.322225047000074,-122.29555280199997
1184891889,"KING PROSTHETICS & ORTHOTICS, INC.",7149717221,GARDEN GROVE,CA,92840,"12849 CHAPMAN AVE, GARDEN GROVE, CA, 92840",True,33.788866496000026,-117.90972365699997
1922265628,AMERICAN FOOT COMFORT CENTER,7074458690,EUREKA,CA,95501,"1670 MYRTLE AVE, EUREKA, CA, 95501",True,40.79414760800006,-124.13583088899998
1205003563,STELLAR PROSTHETICS AND ORTHOTICS,6265840805,PASADENA,CA,91105,"753 S ARROYO PKWY, PASADENA, CA, 91105",True,34.132456698000055,-118.14731141599998
1649439969,ACTIVE BODY SUPPLIES,8187044754,TARZANA,CA,91356,"18344 CLARK ST, TARZANA, CA, 91356",True,34.169767027000034,-118.53215607899995
1609036938,"MOZENA MEDICAL RENTALS, INC",5624949606,LONG BEACH,CA,90804,"3935 E ANAHEIM ST, LONG BEACH, CA, 90804",True,33.78260443600004,-118.14648090299994
1811175128,PATRICK SOGBEIN,8183761243,VAN NUYS,CA,91401,"13615 VICTORY BLVD, VAN NUYS, CA, 91401",True,34.18667547200005,-118.42950021499996
1386687655,DIANNA L POWELL,7602565225,BARSTOW,CA,92311,"544 E WILLIAMS ST, BARSTOW, CA, 92311",True,34.89761642800005,-117.02203562699998
1487685491,SARA CUMMINGS,6196673700,LEMON GROVE,CA,91945,"7846 BROADWAY, LEMON GROVE, CA, 91945",True,32.74272383500005,-117.02954743299995
1053414052,SANDRA L VITALE,2095751063,MODESTO,CA,95350,"1005 W ORANGEBURG AVE, MODESTO, CA, 95350",True,37.663914850000026,-121.00577105699995
1346343365,SANDRA L VITALE,2096349021,TURLOCK,CA,95382,"130 REGIS ST, TURLOCK, CA, 95382",True,37.51941195400008,-120.84960706999999
1487700852,CENTER FOR INDEPENDENT REHABILITATIVE,5305349500,OROVILLE,CA,95965,"479 ORO DAM BLVD EAST, OROVILLE, CA, 95965",True,39.498077342000045,-121.57047446299998
1629101621,"BAKERSFIELD PROSTHETICS & ORTHOTICS CENTER, INC.",5597931808,PORTERVILLE,CA,93257,"49 N HOCKETT ST, PORTERVILLE, CA, 93257",True,36.06585079000007,-119.01708146899995
1205098852,"MOZENA MEDICAL SUPPLIES AND EQUIPMENT, INC",5624949606,LONG BEACH,CA,90804,"3935 E ANAHEIM ST, LONG BEACH, CA, 90804",True,33.78260443600004,-118.14648090299994
1942354584,WEST COAST PROSTHETICS,9166897528,SACRAMENTO,CA,95823,"65 QUINTA CT, SACRAMENTO, CA, 95823",True,38.47327181300005,-121.41897128199997
1558491480,YASUKO FURUHASHI,6267932476,PASADENA,CA,91106,"999 E COLORADO BL, PASADENA, CA, 91106",True,34.14592778400004,-118.13013869399998
1063698199,"BEYOND PROSTHETICS, INC.",4083566300,LOS GATOS,CA,95032,"15899 LOS GATOS ALMADEN RD, LOS GATOS, CA, 95032",True,37.24361078100003,-121.94772452699999
1902087802,ANAHEIM ORTHOTICS AND ORTHOPEDIC APPLIANCES,7146323263,ANAHEIM,CA,92806,"1177 N KRAEMER BLVD, ANAHEIM, CA, 92806",True,33.85371628200005,-117.85824137899999
1720144330,ASSOCIATED PROSTHETICS AND ORTHOTICS,5625312357,LAKEWOOD,CA,90712,"5241 PARAMOUNT BLVD, LAKEWOOD, CA, 90712",True,33.85315363700005,-118.15985902099999
1356549836,RUSSELL JOHN MOLINA,7603454779,PALM DESERT,CA,92260,"73345 HIGHWAY 111, PALM DESERT, CA, 92260",False,,
1497704548,"HEALTH-O-MED, INC.",3236546890,WEST HOLLYWOOD,CA,90046,"7606 SANTA MONICA BLVD, WEST HOLLYWOOD, CA, 90046",True,34.090770623000026,-118.35547071299999
1457366874,MCKINLAY ENTERPRISES INC,5592267500,FRESNO,CA,93710,"343 E SHAW AVE, FRESNO, CA, 93710",True,36.80854332200005,-119.78259088499999
1134147036,JOY'S RETURN,2092233650,JACKSON,CA,95642,"10350 SPUNN RD, JACKSON, CA, 95642",True,38.35968144200007,-120.78526639199998
1851466882,"CAPSTONE ORTHOPEDIC, INC.",2098348600,TRACY,CA,95376,"1355 BESSIE AVE, TRACY, CA, 95376",True,37.74254838400003,-121.43305235099996
1609942960,HOVANESS ABASSIAN & GARO ABASSIAN,8185070662,GLENDALE,CA,91205,"1112 S GLENDALE AVE, GLENDALE, CA, 91205",True,34.13342618200005,-118.25193890799994
1922104751,FONTANA ARTIFICIAL LIMB & BRACE INC.,9098223233,FONTANA,CA,92335,"8576 NUEVO AVE, FONTANA, CA, 92335",True,34.09800877300006,-117.43698352799998
1881861532,ADVANCED PROSTHETICS INC.,3106715330,INGLEWOOD,CA,90301,"301 N PRAIRIE AVE, INGLEWOOD, CA, 90301",True,33.96064793600004,-118.34393269399999
1508876442,CARLOS VALENZUELA,6192809174,SAN DIEGO,CA,92104,"4224 OHIO ST, SAN DIEGO, CA, 92104",True,32.754263535000064,-117.128934088
1194834192,"ACE ORTHOPEDICS, INC.",5629236400,DOWNEY,CA,90242,"7860 IMPERIAL HWY, DOWNEY, CA, 90242",True,33.925853318000065,-118.15570204799997
1912955881,"VALLEY INSTITUTE OF PROSTHETICS & ORTHOTICS, INC.",6613221005,BAKERSFIELD,CA,93301,"1524 21ST ST, BAKERSFIELD, CA, 93301",True,35.37812930900003,-119.01913307499996
1831348465,"ANCHOR ORTHOTICS & PROSTHETICS, INC.",5308871734,AUBURN,CA,95603,"11990 HERITAGE OAK PL, AUBURN, CA, 95603",True,38.94061666400006,-121.09938391299994
1477710234,A LADYS TOUCH INC.,4154546058,SAN RAFAEL,CA,94901,"612 D ST, SAN RAFAEL, CA, 94901",True,37.970189478000066,-122.53251835799995
1275785735,VETERANS ADMINISTRATION PALO ALTO HEALTH CARE SYSTEM,6504935000,PALO ALTO,CA,94304,"3801 MIRANDA AVE, PALO ALTO, CA, 94304",True,37.40279437600003,-122.14168274899998
1184811283,TIMOTHY D. BULGARELLI,6267937103,PASADENA,CA,91107,"454 N CRAIG AVE, PASADENA, CA, 91107",True,34.154121590000045,-118.10626287599996
1275785131,"TI-MED,INC.",3102121232,TORRANCE,CA,90501,"381 VAN NESS AVE, TORRANCE, CA, 90501",True,33.84522519700005,-118.31860722999994
1558455972,"F & N PHARMA,INC.",7148926916,WESTMINSTER,CA,92683,"8526 WESTMINSTER BLVD, WESTMINSTER, CA, 92683",True,33.75933484900003,-117.98065878399996
1164443099,ULTIMA RESOURCES INC,7149628833,FOUNTAIN VALLEY,CA,92708,"18675 BROOKHURST ST, FOUNTAIN VALLEY, CA, 92708",False,,
1164676219,SAGE TO SUMMIT,7608721756,BISHOP,CA,93514,"148 WILLOW ST, BISHOP, CA, 93514",True,37.362841365000065,-118.39425854299998
1609960731,F & N PHARMA INC,7148425390,HUNTINGTON BEACH,CA,92648,"18061 BEACH BLVD, HUNTINGTON BEACH, CA, 92648",False,,
1699920579,JOHNSON'S ORTHOPEDIC,8774832522,WILDOMAR,CA,92595,"24335 PRIELIPP RD, WILDOMAR, CA, 92595",True,33.59050016800006,-117.23614672999997
1881849537,GENESIS SURGICAL,9168011673,ROSEVILLE,CA,95747,"324 RAINBOW TROUT CT, ROSEVILLE, CA, 95747",True,38.80112638500003,-121.32454010299995
1932345964,BUTTE PROSTHETICS,5308934255,CHICO,CA,95926,"2260 ESPLANADE, CHICO, CA, 95926",True,39.751755683000056,-121.85642053999999
1801034319,"J & K ORTHOPEDICS, INC.",6263318856,COVINA,CA,91723,"224 W COLLEGE ST, COVINA, CA, 91723",True,34.08747634700006,-117.89295308199996
1518105840,STELLAR PROSTHETICS & ORTHOTICS,6265840805,LOS ALAMITOS,CA,90720,"3831 CATALINA ST, LOS ALAMITOS, CA, 90720",False,,
1841364726,HANGER PROSTHETICS & ORTHOTICS WEST INC,9257987852,WALNUT CREEK,CA,94598,"350 N WIGET LN, WALNUT CREEK, CA, 94598",False,,
1508887662,BOSTON SCIENTIFIC NEUROMODULATION CORPORATION,6619494000,VALENCIA,CA,91355,"25155 RYE CANYON LOOP, VALENCIA, CA, 91355",True,34.458033872000044,-118.57977585699996
1376759506,CHANNEL ISLANDS PROSTHETICS-ORTHOTICS,8054865531,OXNARD,CA,93030,"520 W 5TH ST, OXNARD, CA, 93030",True,34.19769815400008,-119.18267828499995
1487831558,KATHERINE W DORSCH,8314779596,SOQUEL,CA,95073,"3065 PORTER ST, SOQUEL, CA, 95073",True,36.98915073200004,-121.95729283899999
1891902524,CHANNEL ISLANDS PROSTHETICS-ORTHOTICS,8056581822,VENTURA,CA,93003,"4517 MARKET ST, VENTURA, CA, 93003",True,34.257247465000034,-119.23209224599998
1962643007,"ANCHOR ORTHOTICS & PROSTHETICS, INC",5308871734,AUBURN,CA,95603,"11990 HERITAGE OAK PL, AUBURN, CA, 95603",True,38.94061666400006,-121.09938391299994
1023251691,HEIDI'S IMAGE ENHANCEMENT CLINIC,5107148392,UNION CITY,CA,94587,"2600 CENTRAL AVE, UNION CITY, CA, 94587",True,37.591440841000065,-122.03988207299994
1992891998,PETER J VILLALPANDO,9258679500,SAN RAMON,CA,94583,"2570 SAN RAMON VALLEY BLVD, SAN RAMON, CA, 94583",True,37.77087298600003,-121.97330207599998
1144368390,"PROSTHETIC & ORTHOTIC GROUP OF VENTURA COUNTY , LLC",8053890272,CAMARILLO,CA,93010,"601 E DAILY DR, CAMARILLO, CA, 93010",True,34.218530061000024,-119.05821691799997
1831324474,TENNI-MOC'S,5624297777,LONG BEACH,CA,90815,"6502 E SPRING ST, LONG BEACH, CA, 90815",True,33.810475272000076,-118.10636556599997
1801822937,"THE SHOE TREE, INC",8057735571,PISMO BEACH,CA,93449,"801 DOLLIVER ST, PISMO BEACH, CA, 93449",True,35.14253538200006,-120.64299440599996
1497992861,"SUNNY HILLS PROSTHETIC SERVICES, INC.",7147384769,FULLERTON,CA,92832,"332 E COMMONWEALTH AVE, FULLERTON, CA, 92832",True,33.87036795200004,-117.91907123799996
1114948080,"KAWEAH ORTHOPEDIC & PROSTHETICS INC,.",5597411300,VISALIA,CA,93277,"2318 W SUNNYSIDE AVE, VISALIA, CA, 93277",True,36.30341727200005,-119.31619841099996
1225182033,JAMES J VONHOLLE,8586746263,SAN DIEGO,CA,92128,"11835 CARMEL MOUNTAIN RD, SAN DIEGO, CA, 92128",True,32.98091416600005,-117.07758014199999
1720311897,"DYNAMICBRACINGSOLUTIONS, INC.",6199723853,SAN DIEGO,CA,92123,"4373 VIEWRIDGE AVE, SAN DIEGO, CA, 92123",True,32.82134493600006,-117.12455723699998
1336472695,SHOE FIX AND PEDORTHIC CARE,5308887884,AUBURN,CA,95603,"605 HIGH ST, AUBURN, CA, 95603",True,38.90225631100003,-121.06816262399997
1639181811,STOCKTON HAND THERAPY & REHABILITATION,2099568737,STOCKTON,CA,95207,"1919 GRAND CANAL BLVD, STOCKTON, CA, 95207",True,37.98611680100004,-121.32913428699999
1144403056,KEVIN E CALVO,8582709972,SAN DIEGO,CA,92117,"3737 MORAGA AVE, SAN DIEGO, CA, 92117",True,32.80924599300005,-117.21134915099998
1902935091,"VALLEY FOOT AND ANKLE, INC.",8189076102,ENCINO,CA,91316,"5400 BALBOA BLVD, ENCINO, CA, 91316",True,34.16888296800005,-118.50108167199994
1457685877,"DEB MED, INC.",7604133947,YUCCA VALLEY,CA,92284,"57725 29 PALMS HWY, YUCCA VALLEY, CA, 92284",True,34.12638160100005,-116.40441378399998
1700828944,"BLUEBIRD ORTHOTICS AND PROSTHETICS, INC.",8588746750,SAN DIEGO,CA,92123,"4373 VIEWRIDGE AVE, SAN DIEGO, CA, 92123",True,32.82134493600006,-117.12455723699998
1720253305,"CORE PROSTHETICS LAB, INC.",9512468888,SUN CITY,CA,92586,"29723 NEW HUB DR, SUN CITY, CA, 92586",True,33.687236323000036,-117.17654950399998
1023298049,"OCOTILLO PHARMACY, INC.",7603527100,EL CENTRO,CA,92243,"1501 OCOTILLO DR, EL CENTRO, CA, 92243",True,32.777180893000036,-115.56940390499994
1912238114,URBAN TWIST,5595879545,HANFORD,CA,93230,"130 E 8TH ST, HANFORD, CA, 93230",True,36.32778627000005,-119.64539053499999
1003139866,WES SPHAR PEDORTHIC SERVICE,5302249420,REDDING,CA,96002,"C/O 2682 LA RINCONADA PLACE, REDDING, CA, 96002",True,40.537009685000044,-122.32181512299996
1346577160,"HARA ORTHOTICS AND PROSTHETICS,INC",7145251035,FULLERTON,CA,92833,"1343 W VALENCIA DR, FULLERTON, CA, 92833",True,33.866557639000064,-117.94892985899997
1508855776,GLOBAL PROSTHETICS & ORTHOTICS,3235654093,LOS ANGELES,CA,90047,"2021 W FLORENCE AVE, LOS ANGELES, CA, 90047",True,33.974583206000034,-118.31390604199999
1831370931,P V O HEALTH CARE,9096297615,POMONA,CA,91767,"367 ERVILLA ST, POMONA, CA, 91767",True,34.077838204000045,-117.74721541799994
1265602254,"MICHAEL A. AVAKIAN, D.P.M.",6263984069,PASADENA,CA,91107,"2544 E WASHINGTON BLVD, PASADENA, CA, 91107",True,34.169130531000064,-118.09821325999997
1669546545,HANGER PROSTHETICS & ORTHOTICS WEST INC,9253715043,LIVERMORE,CA,94551,"4659 LAS POSITAS RD, LIVERMORE, CA, 94551",True,37.69546577400007,-121.73958803099998
1114091097,HANGER PROSTHETICS & ORTHOTICS WEST INC,2098327407,TRACY,CA,95376,"2251 WEST GRANTLINE ROAD, TRACY, CA, 95376",True,37.75419605500008,-121.45706873899996
1467580423,MISS STEVENS FOR LINGERIE,3102787987,LOS ANGELES,CA,90064,"2235 S SEPULVEDA BLVD, LOS ANGELES, CA, 90064",True,34.039636710000025,-118.43741664599997
1043384191,HANGER PROSTHETICS & ORTHOTICS WEST INC,5107240400,PINOLE,CA,94564,"1660 SAN PABLO AVE, PINOLE, CA, 94564",True,38.004240082000024,-122.29785042999998
1417261579,LEGACY MEDICAL EQUIPMENT,5302411500,REDDING,CA,96002,"3310 CHURN CREEK RD, REDDING, CA, 96002",True,40.55959241100004,-122.35309017799995
1932196847,CORDELIA KNOTT WELLNESS FOUNDATION,7145415563,ORANGE,CA,92868,"230 S MAIN ST, ORANGE, CA, 92868",True,33.78520903000003,-117.86729099399997
1861707416,"BACKJOY ORTHOTICS, LLC",3109287751,VALENCIA,CA,91355,"25852 MC BEAN PARKWAY, VALENCIA, CA, 91355",False,,
1659476349,MARC RHEINGOLD,3103202110,TORRANCE,CA,90501,"2375 TORRANCE BLVD, TORRANCE, CA, 90501",True,33.83638650800003,-118.325106474
1891863007,"HANGER PROSTHETICS & ORTHOTICS WEST, INC.",5305281795,RED BLUFF,CA,96080,"24 ANTELOPE BLVD, RED BLUFF, CA, 96080",False,,
1730274903,SIMISOLA PHARMACY INC,3106776522,INGLEWOOD,CA,90303,"11011 CRENSHAW BLVD, INGLEWOOD, CA, 90303",True,33.93566375800003,-118.32640929799999
1851463038,"ANGEL MEDICAL SUPPLY, INC.",9096203940,POMONA,CA,91766,"604 W MISSION BLVD, POMONA, CA, 91766",True,34.054966206000074,-117.75561643399999
1083855373,"JTS MANAGEMENT, INC.",9097993900,REDLANDS,CA,92374,"25809 BUSINESS CENTER DR, REDLANDS, CA, 92374",True,34.06533157800004,-117.24185338899997
1568557478,RGP ORTHOPEDIC APPLIANCE CO INC,6195823871,SAN DIEGO,CA,92115,"6147 UNIVERSITY AVE, SAN DIEGO, CA, 92115",True,32.75318313900004,-117.06336750499997
1497089023,"OK MEDICAL EQUIPMENTS AND SUPPLY, LLC",3237475307,INGLEWOOD,CA,90302,"1626 CENTINELA AVE, INGLEWOOD, CA, 90302",True,33.97707969800007,-118.36737564499998
1588746887,DESERT PROSTHETICS & ORTHOTICS,7607704620,CATHEDRAL CITY,CA,92234,"68860 PEREZ RD, CATHEDRAL CITY, CA, 92234",False,,
1992008387,"CAROL LEWIS STOLPE, BCO, LLC",3102718801,BEVERLY HILLS,CA,90210,"435 N BEDFORD DR, BEVERLY HILLS, CA, 90210",True,34.06834997400006,-118.40548697499997
1588967962,DESERT PROSTHETICS & ORTHOTICS GROUP,7607704620,INDIO,CA,92201,"81709 DR CARREON BLVD, INDIO, CA, 92201",True,33.707349538000074,-116.24033798799996
1518980515,"CENTER FOR INDEPENDENT REHABILITATIVE SERVICES, INC",5106539834,OAKLAND,CA,94609,"430 40TH STREET, OAKLAND, CA, 94609",True,37.828694676000055,-122.26118527399996
1245534510,"AESTHETIC PROSTHETICS, INC.",6263450050,PASADENA,CA,91104,"1095 N ALLEN AVE, PASADENA, CA, 91104",True,34.16494376900005,-118.11308025199997
1568617868,ORANGE COAST PROSTHETICS INC.,7146372788,ORANGE,CA,92865,"2324 N BATAVIA ST, ORANGE, CA, 92865",True,33.82739129200007,-117.86199735699995
1831421742,FOLSOM MEDICAL SUPPLY LLC,9162938897,FOLSOM,CA,95630,"422 E BIDWELL ST, FOLSOM, CA, 95630",True,38.67382790700003,-121.16668349599996
1538466644,"PRECISION ORTHOTICS & PROSTHETICS, INC",7602417774,VICTORVILLE,CA,92395,"15586 7TH STREET, VICTORVILLE, CA, 92395",True,34.535282307000045,-117.29405366999998
1982903720,"JACKRABBIT SHOES AND ORTHOTICS, INC.",7077511630,BENICIA,CA,94510,"4576 E 2ND ST, BENICIA, CA, 94510",True,38.081097337000074,-122.13105725899999
1598701427,CENTER FOR INDEPENDENT REHABILITATIVE SERVICES INC,2095491000,MODESTO,CA,95355,"937 COFFEE RD, MODESTO, CA, 95355",True,37.65632961600005,-120.97558586299999
1871808295,CENTER FOR INDEPENDENT REHABILITATIVE SERVICES,2099424166,STOCKTON,CA,95204,"3215 N CALIFORNIA ST, STOCKTON, CA, 95204",True,37.98097165100006,-121.29327539099995
1962665802,SMART PROSTHETICS ORTHOTICS INC,3236621100,LOS ANGELES,CA,90027,"1407 N VERMONT AVE, LOS ANGELES, CA, 90027",True,34.09642796400004,-118.29175704199997
1679566517,PHARMKEE INC.,5598469397,KERMAN,CA,93630,"15051 W WHITESBRIDGE AVE, KERMAN, CA, 93630",True,36.73492335700007,-120.06089989799995
1407178536,"TOUCH LIFE CENTER-GLENDALE, LLC",8182916268,GLENDALE,CA,91203,"450 N BRAND BLVD, GLENDALE, CA, 91203",False,,
1780915744,LOS ANGELES ORTHOPEDIC GROUP INC,5626330809,LAKEWOOD,CA,90712,"5257 PARAMOUNT BLVD, LAKEWOOD, CA, 90712",True,33.85330800000003,-118.15985791799994
1487945739,RUTHIVA LLC,6192414616,SAN DIEGO,CA,92124,"10601 TIERRASANTA BLVD, SAN DIEGO, CA, 92124",True,32.823274162000075,-117.10195684399997
1407902471,TAM T TRAN,4089930382,SAN JOSE,CA,95112,"696 E SANTA CLARA ST, SAN JOSE, CA, 95112",True,37.34294091900006,-121.87628802599994
1932101250,NEXT STEP A WOMANS BOUTIQUE LLC,4083588433,LOS GATOS,CA,95032,"15400 NATIONAL AVE, LOS GATOS, CA, 95032",True,37.24491317800005,-121.94956428399996
1922099159,L.I.C PROSTHETICS AND ORTHOTICS,7145630056,ANAHEIM,CA,92805,"321 E CENTER ST, ANAHEIM, CA, 92805",True,33.83613587200006,-117.91079803199995
1780978726,ENES INC,4157754000,SAN FRANCISCO,CA,94115,"1221 DIVISADERO ST, SAN FRANCISCO, CA, 94115",True,37.780818314000044,-122.43902988399998
1063710986,"M & M MEDICAL SUPPLIES, INC.",6507581320,DALY CITY,CA,94015,"11 SAINT FRANCIS SQ, DALY CITY, CA, 94015",True,37.68452552100007,-122.47755361599997
1538163878,ORTHOPROS INC,3108287485,SANTA MONICA,CA,90404,"2021 SANTA MONICA BLVD, SANTA MONICA, CA, 90404",False,,
1659668796,HANGER PROSTHETICS & ORTHOTICS WEST,7148711480,LA HABRA,CA,90631,"1480 S HARBOR BLVD, LA HABRA, CA, 90631",False,,
1528346806,FEELING BEAUTIFUL AGAIN,7073998511,FAIRFIELD,CA,94533,"1916 NEW JERSEY STREET, FAIRFIELD, CA, 94533",True,38.25435666200008,-122.06477778799996
1184689085,J&K ORTHOPEDICS INC,9096211180,POMONA,CA,91767,"320 E BONITA AVENUE, POMONA, CA, 91767",True,34.09621901200006,-117.74444744399995
1245378074,"PROSTHETICS ETC., INC.",7145029354,ANAHEIM,CA,92805,"1700 E LINCOLN AVE, ANAHEIM, CA, 92805",True,33.840048016000026,-117.89407514099997
1952581563,TIMOTHY D. BULGARELLI,6619747037,LANCASTER,CA,93534,"44404 16TH ST W, LANCASTER, CA, 93534",True,34.68977648500004,-118.15846955799998
1437388089,"TAGG INDUSTRIES, INC",9497709029,LAGUNA HILLS,CA,92653,"23210 DEL LAGO DR, LAGUNA HILLS, CA, 92653",True,33.626676745000054,-117.72682485599995
1750596995,"ORTHOVANTAGE, INC",9494434414,ALISO VIEJO,CA,92656,"27 BROOKLINE, ALISO VIEJO, CA, 92656",True,33.592439769000066,-117.72823795299996
1619251576,DESERT PROSTHETICS & ORTHOTICS GROUP,7607704620,YUCCA VALLEY,CA,92284,"57402 TWENTYNINE PALMS HWY, YUCCA VALLEY, CA, 92284",True,34.12408284800006,-116.41205579299998
1457641094,"VIVIANO CUSTOM SHOE COMPANY, INC.",8182928250,WOODLAND HILLS,CA,91367,"6279 VARIEL AVE, WOODLAND HILLS, CA, 91367",True,34.18488370400007,-118.59279015499999
1821373275,HANGER PROSTHETICS & ORTHOTICS WEST,7603360703,EL CENTRO,CA,92243,"1073 ROSS AVE, EL CENTRO, CA, 92243",True,32.78150082500002,-115.56467533899996
1508142530,"SUMMIT MEDICAL SUPPLY, LLC",9513141771,FONTANA,CA,92335,"8362 REDWOOD AVE, FONTANA, CA, 92335",True,34.101663736000035,-117.48444156499994
1962722322,REMEDY MEDICAL SUPPLY,8052671858,WESTLAKE VILLAGE,CA,91362,"3717 E THOUSAND OAKS BLVD, WESTLAKE VILLAGE, CA, 91362",False,,
1891916367,KIMBO MEDICAL DISTRIBUTOR,3108349574,WILMINGTON,CA,90744,"407 N AVALON BLVD, WILMINGTON, CA, 90744",True,33.77436867200004,-118.26199504399995
1447415930,CAREMEDICS ORTHOTICS & PROSTHETICS INC,7149567998,ANAHEIM,CA,92801,"421 N BROOKHURST ST, ANAHEIM, CA, 92801",True,33.83861662500004,-117.95903249699995
1760467385,LERMAN AND SON INC,3106776183,INGLEWOOD,CA,90301,"654 AERICK ST, INGLEWOOD, CA, 90301",True,33.96358632700003,-118.34473209899994
1629080700,ANAHIT GRIGORYAN,3232575535,LOS ANGELES,CA,90041,"4448 EAGLE ROCK BLVD, LOS ANGELES, CA, 90041",True,34.12502753700005,-118.21983746099994
1881648467,"HEMET PROSTHETIC & ORTHOTIC GROUP, INC.",9517664297,HEMET,CA,92543,"1133 E FLORIDA AVE, HEMET, CA, 92543",True,33.74760071800006,-116.96033377099997
1932365673,"HEMET PROSTHETIC & ORTHOTIC GROUP, INC.",9512969677,TEMECULA,CA,92590,"41785 ENTERPRISE CIR S, TEMECULA, CA, 92590",True,33.517508073000045,-117.16673403499999
1023188943,JENNINGS ORTHOPEDIC INC,9513522029,RIVERSIDE,CA,92505,"10683 MAGNOLIA AVE, RIVERSIDE, CA, 92505",True,33.90862961300007,-117.46719264599994
1023302015,BALDWIN ORTHOTICS & PROSTHETICS INC,9518247850,MORENO VALLEY,CA,92553,"24475 SUNNYMEAD BLVD, MORENO VALLEY, CA, 92553",True,33.93910376500003,-117.23372850699997
1790963668,GERALD D BOWMAN,8186002560,ENCINO,CA,91436,"16430 VENTURA BLVD, ENCINO, CA, 91436",True,34.157360751000056,-118.49088826199994
1487683942,MEDICAL SUPPLY DEPOT,3237736522,BELL,CA,90201,"4846 FLORENCE AVE, BELL, CA, 90201",True,33.96957589700003,-118.18101155599999
1598038614,AMERICAN ORTHOTICS & PROSTHETICS,9094739308,SAN BERNARDINO,CA,92411,"1666 MEDICAL CENTER DR, SAN BERNARDINO, CA, 92411",True,34.129575241000055,-117.32258020499995
1487928123,INNOVATIVE FEDERAL OPERATIONS GROUP,7605364144,VISTA,CA,92084,"640 E VISTA WAY, VISTA, CA, 92084",True,33.20623468000008,-117.23647299799995
1750506713,"INHOUS ORTHOPEDICS, INC.",7148399026,WESTMINSTER,CA,92683,"15571 BROOKHURST ST, WESTMINSTER, CA, 92683",True,33.73545464100005,-117.95485065799994
1518233402,PAUL H. TUREK DC CHIROPRACTIC INC,9498378009,MISSION VIEJO,CA,92691,"27725 SANTA MARGARITA PKWY, MISSION VIEJO, CA, 92691",False,,
1578839189,"BROSS AND ASSOCIATES, LLC",8185211112,GLENDALE,CA,91203,"450 N BRAND BLVD, GLENDALE, CA, 91203",False,,
1326040502,AVASCO MEDICAL SUPPLY INC.,8055225333,SIMI VALLEY,CA,93065,"690 EAST LOS ANGELES AVE, SIMI VALLEY, CA, 93065",True,34.27171189100005,-118.785092884
1518033505,LONG BEACH ARTIFICIAL LIMB CO INC,5624265531,LONG BEACH,CA,90806,"2268 LONG BEACH BLVD, LONG BEACH, CA, 90806",True,33.79832584500008,-118.18936458999997
1497748818,SWISS BALANCE INC,3104589648,SANTA MONICA,CA,90404,"1260 15TH ST, SANTA MONICA, CA, 90404",True,34.026722294000024,-118.48696889799999
1720126824,"CAPSTONE ORTHOPEDIC, INC.",5592980321,FRESNO,CA,93720,"7015 N CHESTNUT AVE, FRESNO, CA, 93720",True,36.837868241000024,-119.73612375799996
1760749675,"CAPSTONE ORTHOPEDIC, INC.",8314210007,SANTA CRUZ,CA,95062,"1010 WATER ST, SANTA CRUZ, CA, 95062",True,36.981426870000064,-122.01303837299997
1326113580,SPINAL REHABILITATION MEDICAL GROUP INC,3103932225,SANTA MONICA,CA,90404,"1441 BROADWAY, SANTA MONICA, CA, 90404",True,34.02305599700003,-118.48374032499999
1962555938,KINGDOM MEDICAL SUPPLY INC,4157510628,SAN FRANCISCO,CA,94118,"3900 GEARY BLVD, SAN FRANCISCO, CA, 94118",True,37.78123184400005,-122.46115317799996
1235405861,D DANZ & SONS INC,2094776352,STOCKTON,CA,95207,"2155 W MARCH LANE, STOCKTON, CA, 95207",True,37.98624632900004,-121.33292751699997
1043576820,D DANZ & SONS INC,6613226553,BAKERSFIELD,CA,93301,"2116 24TH STREET, BAKERSFIELD, CA, 93301",True,35.38103713500004,-119.02607218899999
1033475819,D DANZ & SONS INC,5592521770,SAN LUIS OBISPO,CA,93401,"1930 MONTEREY STREET, SAN LUIS OBISPO, CA, 93401",True,35.28936041000003,-120.65082203499998
1205192085,D DANZ & SONS INC,4153923080,SAN FRANCISCO,CA,94108,"450 SUTTER STREET, SAN FRANCISCO, CA, 94108",True,37.78933422000006,-122.40778785199996
1609135029,M&G CUSTOM SHOES AND ORTHOTICS LLC,9253051855,WALNUT CREEK,CA,94597,"2950 BUSKIRK AVE, WALNUT CREEK, CA, 94597",True,37.92720167700003,-122.05998414799996
1902076987,M&G CUSTOM SHOES AND ORTHOTICS LLC,9253051855,ANTIOCH,CA,94509,"1504 A ST, ANTIOCH, CA, 94509",True,38.00713346200007,-121.80602923999999
1154681674,"EMPOWERED INTIMATES, INC.",5107825745,HAYWARD,CA,94545,"1338 W WINTON AVE, HAYWARD, CA, 94545",True,37.653060905000075,-122.11807092599997
1336446004,"MEDICAL DYNAMICS ENTERPRISES, INC.",7075888850,ROHNERT PARK,CA,94928,"613 MARTIN AVE, ROHNERT PARK, CA, 94928",True,38.353560680000044,-122.72547814299998
1669680856,"BENTON MEDICAL EQUIPMENT, INC.",6506251000,MOUNTAIN VIEW,CA,94043,"2601 GARCIA AVE, MOUNTAIN VIEW, CA, 94043",True,37.42784588000006,-122.09734793199999
1962722983,JAY MUKKER DPM INC,5592245101,FRESNO,CA,93722,"7210 N MILBURN AVE, FRESNO, CA, 93722",True,36.83988745500005,-119.87908842999997
1811259856,"SAN DIEGO DENTAL SLEEP THERAPY, LLC",6194600714,LA MESA,CA,91942,"8530 LA MESA BLVD, LA MESA, CA, 91942",True,32.76866135700004,-117.01350876599997
1447473244,FRANK JAVIER LOPEZ,9513529203,RIVERSIDE,CA,92503,"11731, RIVERSIDE, CA, 92503",False,,
1346225968,LERMAN AND SON ORTHOTICS AND PROSTHETICS INC,3106592290,BEVERLY HILLS,CA,90211,"8710 WILSHIRE BLVD, BEVERLY HILLS, CA, 90211",True,34.06659703300005,-118.38188566599996
1447515531,"JAMES W DRYDEN, CPO, INC.",8187531316,NORTH HOLLYWOOD,CA,91602,"10711 RIVERSIDE DR, NORTH HOLLYWOOD, CA, 91602",True,34.15223793800004,-118.36411038799997
1295769289,"SEQUOIA PROSTHETICS & ORTHOTICS, INC.",5597341060,VISALIA,CA,93291,"5435 W HILLSDALE AVE, VISALIA, CA, 93291",True,36.329540930000064,-119.35178740199996
1205847126,"HANGER PROSTHETICS & ORTHOTICS WEST, INC.",7603360703,EL CENTRO,CA,92243,"1073 ROSS AVE, EL CENTRO, CA, 92243",True,32.78150082500002,-115.56467533899996
1013148238,PED NEGOTIUM INC.,6572293079,BREA,CA,92821,"1220 PIONEER ST, BREA, CA, 92821",False,,
1346432325,"M & M HOME HEALTH, INC.",3236618004,LOS ANGELES,CA,90027,"5207 W SUNSET BLVD, LOS ANGELES, CA, 90027",False,,
1326398751,DESERT PROSTHETICS & ORTHOTICS INC.,7603428200,INDIO,CA,92201,"81709 DR CARREON BLVD, INDIO, CA, 92201",True,33.707349538000074,-116.24033798799996
1093072118,RUTH MALDONADO,9513529200,RIVERSIDE,CA,92503,"10220 HOLE AVE, RIVERSIDE, CA, 92503",True,33.91451008400003,-117.45988726399997
1265783302,WIGGIN OUT SALONS,9496469447,NEWPORT BEACH,CA,92663,"2400 W COAST HWY, NEWPORT BEACH, CA, 92663",True,33.61647175500008,-117.91564412999998
1952301640,"BREAKEY PROSTHETICS, INC.",4087230883,SAN JOSE,CA,95125,"820 MALONE RD, SAN JOSE, CA, 95125",True,37.29676453700006,-121.88248596799997
1205187218,APEX PROSTHETICS INSTITUTE OF SAN DIEGO,6195015383,SAN DIEGO,CA,92103,"3585 5TH AVE, SAN DIEGO, CA, 92103",True,32.74303241900003,-117.16037636099998
1275885824,VITALIS ORTHOPEDICS,8185303161,PANORAMA CITY,CA,91402,"7618 WOODMAN AVE, PANORAMA CITY, CA, 91402",True,34.208750448000046,-118.43093939699997
1952439796,NORTH BAY PROSTHETICS AND ORTHOTICS LLC,7074255028,FAIRFIELD,CA,94534,"450 CHADBOURNE RD, FAIRFIELD, CA, 94534",True,38.23365014900003,-122.08379638399998
1104856806,"AMERICAN ORTHOTICS & PROSTHETICS, LLC.",9513676702,RIVERSIDE,CA,92506,"3714 TIBBETTS ST, RIVERSIDE, CA, 92506",True,33.94730029700003,-117.39746951699999
1699952515,"RALPH P. HOYAL, DPM",7075462107,SANTA ROSA,CA,95404,"1041 4TH ST, SANTA ROSA, CA, 95404",True,38.443958201000044,-122.70639281199999
1538174016,ARA KELEKIAN DPM INC,3233460996,MONTEBELLO,CA,90640,"515 W BEVERLY BLVD, MONTEBELLO, CA, 90640",True,34.01652751800003,-118.10291668599996
1386838449,ARA KELEKIAN DPM INC,8188480535,BURBANK,CA,91505,"4314 W VICTORY BLVD, BURBANK, CA, 91505",True,34.18484431300004,-118.35765886799999
1245292358,FCMS CORPORATION,8054850331,OXNARD,CA,93030,"1751 N LOMBARD STREET, OXNARD, CA, 93030",True,34.21735110000003,-119.14931144699995
1306861232,"KOLMAN PROSTHETICS ORTHOTICS,INC.",5626980988,WHITTIER,CA,90602,"7633 GREENLEAF AVE, WHITTIER, CA, 90602",True,33.973025206000045,-118.03736697799997
1801133194,SHOES & THINGS,5597823472,PORTERVILLE,CA,93257,"323 N D ST, PORTERVILLE, CA, 93257",True,36.07154494200006,-119.01831400699996
1134219413,"HOWARD ORTHOPEDICS, INC",5102221282,RICHMOND,CA,94806,"3065 RICHMOND PKWY, RICHMOND, CA, 94806",True,37.990100555000026,-122.33024143099999
1629137526,CENTER FOR INDEPENDENT REHABILITATIVE SERVICES INC,2093331148,LODI,CA,95242,"1745 KETTLEMAN LANE, LODI, CA, 95242",False,,
1053312652,"D DANZ & SONS, INC.",5592521770,FRESNO,CA,93710,"6741 N WILLOW AVE, FRESNO, CA, 93710",True,36.834609933000024,-119.72955835099998
1205176914,"REBOUND MEDICAL SOLUTIONS, INC.",8313752300,MONTEREY,CA,93940,"1011 CASS ST, MONTEREY, CA, 93940",True,36.59208072200005,-121.89659115699999
1720093115,HANDS ON PROSTHETICS INC,7148478751,HUNTINGTON BEACH,CA,92648,"7921 PROFESSIONAL CIR, HUNTINGTON BEACH, CA, 92648",True,33.69176704100005,-117.99046586399999
1104173053,MOBILE PROSTHETICS AND ORTHOTICS LLC,5102826898,UNION CITY,CA,94587,"33374 DOWE AVE, UNION CITY, CA, 94587",True,37.60105923300006,-122.04352153999997
1437593514,ALEX'S COMFORT SHOES,9166423015,FAIR OAKS,CA,95628,"5333 SUNRISE BLVD, FAIR OAKS, CA, 95628",True,38.66282855000003,-121.27217117099997
1043559677,RESTORE ORTHOTICS AND PROSTHETICS,5306054292,REDDING,CA,96001,"2147 COURT ST, REDDING, CA, 96001",True,40.57729439700006,-122.39313457699996
1336456193,"QUALITY CARE PROSTHETICS & ORTHOTICS, INC.",7146439206,ANAHEIM,CA,92802,"1665 W KATELLA AVE, ANAHEIM, CA, 92802",True,33.80317693200004,-117.93985083599995
1164600722,DONALD WAYNE KLUGE JR,9094789081,LOMA LINDA,CA,92354,"11306 MOUNTAIN VIEW AVE, LOMA LINDA, CA, 92354",True,34.04803799100006,-117.24363765099997
1558708446,SIMA ENTERPRISES INC,4082794247,SAN JOSE,CA,95128,"1190 S BASCOM AVE, SAN JOSE, CA, 95128",True,37.30434857100005,-121.93172128699996
1780728550,"O & P IN MOTION, INC.",8188811785,RESEDA,CA,91335,"18913 SHERMAN WAY, RESEDA, CA, 91335",True,34.201064564000035,-118.54534816499995
1003150210,ELITE BIOMECHANICAL DESIGN,5306736913,YUBA CITY,CA,95991,"1100 GARDEN HWY, YUBA CITY, CA, 95991",True,39.11150532600004,-121.61721651799996
1639410988,BEST CENTER INC,9498292378,NEWPORT BEACH,CA,92660,"3501 JAMBOREE RD, NEWPORT BEACH, CA, 92660",True,33.65373638600005,-117.86652185099996
1326048893,"PACIFIC MEDICAL, INC.",8007269180,TRACY,CA,95304,"1700 N CHRISMAN ROAD, TRACY, CA, 95304",True,37.74489176600008,-121.39826733799998
1760720965,"PACIFIC MEDICAL, INC.",9259359194,WALNUT CREEK,CA,94598,"190 N WIGET LN, WALNUT CREEK, CA, 94598",False,,
1083885768,"BEACHWOOD MEDICAL SUPPLY, INC",6263385300,BALDWIN PARK,CA,91706,"13851 GARVEY AVE, BALDWIN PARK, CA, 91706",True,34.06993759200003,-117.97400643099996
1548693666,RESTORE ORTHOTICS & PROSTHETICS,5305272305,RED BLUFF,CA,96080,"24 ANTELOPE BLVD, RED BLUFF, CA, 96080",False,,
1184057739,"NEXT STEP ORTHOTICS & PROSTHETICS, INC.",9513529203,RIVERSIDE,CA,92503,"11731, RIVERSIDE, CA, 92503",False,,
1306270798,RABBIT'S FOOT ORTHOTICS AND PROSTHETICS,8589431691,SAN DIEGO,CA,92128,"12540 OAKS NORTH DR, SAN DIEGO, CA, 92128",True,33.03302671700004,-117.05927181199996
1659377836,"ACHILLES PROSTHETICS AND ORTHOTICS, INC",6613235944,BAKERSFIELD,CA,93301,"2624 F ST, BAKERSFIELD, CA, 93301",True,35.38319633200007,-119.02347250499997
1376549568,"ACHILLES PROSTHETICS AND ORTHOTICS, INC",8059256144,SANTA MARIA,CA,93454,"622 E MAIN ST, SANTA MARIA, CA, 93454",True,34.953097951000075,-120.42783071699995
1467889121,"DOLLIVER TREE, INC.",8057735571,PISMO BEACH,CA,93449,"801 DOLLIVER ST, PISMO BEACH, CA, 93449",True,35.14253538200006,-120.64299440599996
1710314497,WEST COAST PROSTHETICS INCORPORATED,6262566360,MONROVIA,CA,91016,"210 KRUSE AVE, MONROVIA, CA, 91016",True,34.127700134000065,-118.00125593299998
1780012237,ITC MEDICAL SUPPLIES INC,4153467100,SAN FRANCISCO,CA,94115,"1635 DIVISADERO ST, SAN FRANCISCO, CA, 94115",True,37.78466049600007,-122.43980604999996
1841382991,"HANGER PROSTHETICS & ORTHOTICS WEST, INC.",7148711480,LA HABRA,CA,90631,"1480 S HARBOR BLVD, LA HABRA, CA, 90631",False,,
1144651092,"GEIGER PROSTHETICS AND ORTHOTICS, INC.",5599010073,VISALIA,CA,93291,"917 W CENTER AVE, VISALIA, CA, 93291",True,36.33101296800004,-119.30130342799998
1144533118,NORTH BAY PROSTHETICS AND ORTHOTICS LLC,7072547010,NAPA,CA,94558,"3273 CLAREMONT WAY, NAPA, CA, 94558",True,38.32191972000004,-122.30282752399995
1821430844,NORTH BAY PROSTHETICS AND ORTHOTICS LLC,9167372200,SACRAMENTO,CA,95816,"3001 P ST, SACRAMENTO, CA, 95816",True,38.566470922000065,-121.46930460599998
1487728366,HANGER PROSTHETICS & ORTHOTICS WEST INC,7149786784,ORANGE,CA,92868,"2140 W CHAPMAN AVE, ORANGE, CA, 92868",True,33.78787962300004,-117.87664241799996
1659794824,ORTHOPAEDIC REHAB,3103202110,TORRANCE,CA,90501,"2375 TORRANCE BLVD, TORRANCE, CA, 90501",True,33.83638650800003,-118.325106474
1376585752,"SCOPE ORTHOTICS & PROSTHETICS, INC.",9495839667,LAGUNA WOODS,CA,92637,"24331 EL TORO RD, LAGUNA WOODS, CA, 92637",True,33.60937223900004,-117.72826457199994
1972929461,MY WIG STUDIO,9099524935,RANCHO CUCAMONGA,CA,91739,"12543 WINERY DR, RANCHO CUCAMONGA, CA, 91739",True,34.119750889000045,-117.53157087399995
1982863676,"CHILDRESS INVESTMENTS, INC.",9099301233,ONTARIO,CA,91761,"1240 E LOCUST ST, ONTARIO, CA, 91761",True,34.04484252300006,-117.62774693899996
1356599591,"PACIFIC MEDICAL, INC.",2095243113,MODESTO,CA,95355,"1335 COFFEE RD, MODESTO, CA, 95355",True,37.662108698000054,-120.97565256299998
1841616018,"MARTIN LUTHER VOCATIONAL CENTER, INC",6266393875,PASADENA,CA,91107,"428 S ROSEMEAD BLVD, PASADENA, CA, 91107",True,34.139175487000045,-118.07329626699999
1447676408,"DAW, LLC",2094810091,LODI,CA,95242,"1745 W KETTLEMAN LN, LODI, CA, 95242",False,,
1053547497,"HANGER PROSTHETICS & ORTHOTICS WEST, INC.",6196677000,LA MESA,CA,91942,"5360 JACKSON DR, LA MESA, CA, 91942",True,32.776565221000055,-117.01673842499997
1205149804,"HANGER PROSTHETICS & ORTHOTICS WEST, INC.",8584851620,POWAY,CA,92064,"12630 MONTE VISTA RD, POWAY, CA, 92064",True,32.99465259500005,-117.05523910499994
1659366003,"SIERRA ORTHOPEDIC LABORATORY, INC.",7075289808,SANTA ROSA,CA,95403,"4847 OLD REDWOOD HWY, SANTA ROSA, CA, 95403",True,38.50179601000008,-122.75340027599998
1134293285,HANGER PROSTHETICS & ORTHOTICS WEST INC,9257340344,PLEASANTON,CA,94588,"5880 W LAS POSITAS BLVD, PLEASANTON, CA, 94588",True,37.684459996000044,-121.89577295499998
1801960786,HANGER PROSTHETICS & ORTHOTICS WEST INC,5305337344,OROVILLE,CA,95966,"2275 MYERS ST, OROVILLE, CA, 95966",True,39.50710627400008,-121.55143450399999
1053738674,ALLIANCE PROSTHETICS & ORTHOTICS INC.,5629451111,WHITTIER,CA,90602,"12458 E WASHINGTON BLVD, WHITTIER, CA, 90602",True,33.967604906000076,-118.04628648699997
1508284191,GRABOWSKI OCULAR PROSTHETICS LLC,5596253937,VISALIA,CA,93291,"300 E MINERAL KING AVE, VISALIA, CA, 93291",True,36.32745506400005,-119.28995378599996
1508285461,"LIMBOLOGY, LLC",5599366104,VISALIA,CA,93291,"3603 W HILLSDALE AVE, VISALIA, CA, 93291",True,36.32942094300006,-119.33083586599997
1891105961,"MEDEQUIP, INC",9494434414,ALISO VIEJO,CA,92656,"27 BROOKLINE, ALISO VIEJO, CA, 92656",True,33.592439769000066,-117.72823795299996
1356763742,"ACHILLES PROSTHETICS AND ORTHOTICS, INC",8054341600,TEMPLETON,CA,93465,"234 HEATHER CT, TEMPLETON, CA, 93465",True,35.554039611000064,-120.71763648099994
1275944159,THE COBBLERS CORNER,9494972447,LAGUNA BEACH,CA,92651,"985 S COAST HWY, LAGUNA BEACH, CA, 92651",True,33.53516241500006,-117.77776789199999
1245641695,WEST COAST PROSTHETICS INC.,6262566360,MONROVIA,CA,91016,"210 KRUSE AVE, MONROVIA, CA, 91016",True,34.127700134000065,-118.00125593299998
1851621734,ELITE BIOMECHANICAL DESIGN,5308946913,CHICO,CA,95926,"9 GOVERNORS LN, CHICO, CA, 95926",True,39.755723412000066,-121.85892132199996
1427463637,ESCALATE PROSTHETIC ORTHOTIC CLINIC,3104808760,CORONA,CA,92881,"2982 MCDONALD LN, CORONA, CA, 92881",True,33.84248482700008,-117.57274629099999
1194132795,"ANNADON, INC.",8584504443,SAN DIEGO,CA,92122,"4079 GOVERNOR DR, SAN DIEGO, CA, 92122",True,32.85455929200003,-117.20205451899994
1457769499,TURNER ORTHOTICS AND PROSTHETICS LLC,7073018989,VACAVILLE,CA,95687,"413 MELISSA CT, VACAVILLE, CA, 95687",True,38.31666086000007,-121.96734818199997
1255750790,RESTORE ORTHOTICS AND PROSTHETICS,8313752300,MONTEREY,CA,93940,"1011 CASS ST, MONTEREY, CA, 93940",True,36.59208072200005,-121.89659115699999
1366851792,ERDMANN PROSTHETICS & ORTHOTICS,9167723333,ROSEVILLE,CA,95661,"151 N SUNRISE AVE, ROSEVILLE, CA, 95661",False,,
1932518156,ALEX'S COMFORT SHOES INC,9169675858,FAIR OAKS,CA,95628,"5333 SUNRISE BLVD, FAIR OAKS, CA, 95628",True,38.66282855000003,-121.27217117099997
1255732046,DEANNA RISOS DMD PC,6194828880,CHULA VISTA,CA,91914,"841 KUHN DR, CHULA VISTA, CA, 91914",True,32.65258051100005,-116.96625836699997
1821490970,BENEDICT YH CHING,7148614637,FOUNTAIN VALLEY,CA,92708,"18111 BROOKHURST ST, FOUNTAIN VALLEY, CA, 92708",False,,
1811213549,"PEDIATRIC ORTHOTIC AND PROSTHETIC SERVICES-WEST, LLC",9164532170,SACRAMENTO,CA,95817,"2425 STOCKTON BLVD, SACRAMENTO, CA, 95817",True,38.55284964500004,-121.45619021699997
1720014210,CENTER FOR INDEPENDENT REHABILITATIVE SERVICES INC,2098458231,OAKDALE,CA,95361,"693 HI TECH PARKWAY, OAKDALE, CA, 95361",True,37.75175301500008,-120.83948569699999
1932502184,CENTER FOR INDEPENDENT REHABILITATIVE SERVICES INC,2098458231,OAKDALE,CA,95361,"693 HI TECH PKWY, OAKDALE, CA, 95361",True,37.75175301500008,-120.83948569699999
1841553682,"PACIFIC MEDICAL, INC.",4159238812,SAN FRANCISCO,CA,94117,"500 BAKER ST, SAN FRANCISCO, CA, 94117",True,37.77558399700007,-122.44130540599997
1811223647,"PACIFIC MEDICAL, INC.",5302290351,REDDING,CA,96001,"1760 GOLD ST, REDDING, CA, 96001",True,40.57880639900003,-122.39309462299997
1265438857,VALLEY ORTHOPEDIC INC,5592211933,FRESNO,CA,93726,"3520 E SHIELDS AVE, FRESNO, CA, 93726",True,36.77955947800007,-119.76575977799996
1154594349,VALLEY ORTHOPEDIC INC,5597337976,VISALIA,CA,93291,"5603 W HILLSDALE AVE, VISALIA, CA, 93291",True,36.329536904000065,-119.35309724399997
1164695359,VALLEY ORTHOPEDIC INC,5592611300,FRESNO,CA,93720,"1247 E ALLUVIAL AVE, FRESNO, CA, 93720",True,36.84472288200004,-119.76098384
1346646783,BARBARA KILBOURN'S HEALTHY BOUTIQUE,6617229500,LANCASTER,CA,93536,"43129 SUNNY LN, LANCASTER, CA, 93536",True,34.66698896300005,-118.16930834599998
1083718670,ITC MEDICAL SUPPLIES INC,4153467100,SAN FRANCISCO,CA,94115,"1635 DIVISADERO ST, SAN FRANCISCO, CA, 94115",True,37.78466049600007,-122.43980604999996
1689070823,TAEDS ORTOTICS & PROSTHETICS,8057101947,ARROYO GRANDE,CA,93420,"145 S HALCYON RD, ARROYO GRANDE, CA, 93420",True,35.11698968300004,-120.59155210099999
1043482433,TOTAL CONTACT MEDICAL INC.,5629449001,SANTA FE SPRINGS,CA,90670,"9900 BELL RANCH DR, SANTA FE SPRINGS, CA, 90670",False,,
1801101597,"PACIFIC MEDICAL, INC.",2097222440,MERCED,CA,95348,"1180 W OLIVE AVE, MERCED, CA, 95348",True,37.31918488000008,-120.48961642999996
1386892529,"PACIFIC MEDICAL, INC.",2095261721,MODESTO,CA,95350,"609 E ORANGEBURG AVE, MODESTO, CA, 95350",True,37.66361613400005,-120.98577328199997
1265664023,"PACIFIC MEDICAL, INC.",9167880530,ROSEVILLE,CA,95661,"1301 SECRET RAVINE PKWY, ROSEVILLE, CA, 95661",True,38.76202628800007,-121.24743945199998
1033367271,"PACIFIC MEDICAL, INC.",9167061520,SACRAMENTO,CA,95816,"3001 L ST, SACRAMENTO, CA, 95816",True,38.570912898000074,-121.46737506
1689954604,"PACIFIC MEDICAL, INC.",2098352280,TRACY,CA,95304,"1851 PARADISE RD, TRACY, CA, 95304",False,,
1245361591,SHATTUCK REHABILITATION SERVICES,5624308700,LOS ALAMITOS,CA,90720,"4772 KATELLA AVE, LOS ALAMITOS, CA, 90720",True,33.80299841900006,-118.05016705999998
1831302850,"COLGATE MEDICAL AND SURGICAL SUPPLIES, INC.",3237820145,LOS ANGELES,CA,90036,"535 N FAIRFAX AVE, LOS ANGELES, CA, 90036",True,34.08088446200003,-118.36146065799994
1821484056,SPECTRUM OF SANTA ROSA,5417342435,SANTA ROSA,CA,95404,"1041 4TH ST, SANTA ROSA, CA, 95404",True,38.443958201000044,-122.70639281199999
1205092970,SERENITY,7606998685,RANCHO MIRAGE,CA,92270,"69930 HIGHWAY 111, RANCHO MIRAGE, CA, 92270",True,33.767592903000036,-116.44520867699998
1104063502,"ACHILLES PROSTHETICS AND ORTHOTICS, INC",8055413800,SAN LUIS OBISPO,CA,93401,"842 CALIFORNIA BLVD, SAN LUIS OBISPO, CA, 93401",True,35.287215607000064,-120.65557556699997
1942697875,ACTIVE 1 PROSTHETICS AND ORTHOTICS,5594935020,FRESNO,CA,93711,"295 W CROMWELL AVE, FRESNO, CA, 93711",True,36.84691741900008,-119.84420498799994
1659398204,ALPHA ORTHOPEDIC APPLIANCE CO A CORP,3237216706,COMMERCE,CA,90040,"5940 E WASHINGTON BLVD, COMMERCE, CA, 90040",True,33.997358449000046,-118.15107944599998
1588044184,DORI LYN LALANNE,7606998685,RANCHO MIRAGE,CA,92270,"69930 HIGHWAY 111, RANCHO MIRAGE, CA, 92270",True,33.767592903000036,-116.44520867699998
1447402599,PROSTHETIC SOLUTIONS INC.,8316370491,HOLLISTER,CA,95023,"191 SAN FELIPE RD, HOLLISTER, CA, 95023",True,36.859644091000064,-121.40158652899999
1083602791,"AMERICAN MEDICAL PROSTHETIC & ORTHOTICS, INC.",8189885414,SHERMAN OAKS,CA,91403,"4955 VAN NUYS BOULEVARD, SHERMAN OAKS, CA, 91403",True,34.16040151900006,-118.44870340999995
1154723849,LIMBITLESS LLC,5593343741,VISALIA,CA,93291,"113 N CHURCH ST, VISALIA, CA, 93291",True,36.33056558800007,-119.29118756099996
1578992319,IMAGE PROSTHETICS INCORPORATED,9094789081,LOMA LINDA,CA,92354,"11306 MOUNTAIN VIEW AVE, LOMA LINDA, CA, 92354",True,34.04803799100006,-117.24363765099997
1447641410,"BAKERSFIELD PROSTHETICS & ORTHOTICS CENTER, INC",6617209293,DELANO,CA,93215,"323 S LEXINGTON ST, DELANO, CA, 93215",False,,
1245606581,MJ MEDICAL INC.,6196442695,LA MESA,CA,91942,"8893 LA MESA BLVD, LA MESA, CA, 91942",True,32.77280514100005,-117.00572348399999
1922475474,ARKADY KAPLANSKY DPM,3238763668,LOS ANGELES,CA,90046,"7260 W SUNSET BLVD, LOS ANGELES, CA, 90046",True,34.097994492000055,-118.34905428199994
1932195195,RODNEY D. HENSON,2099449990,STOCKTON,CA,95204,"2540 PACIFIC AVE, STOCKTON, CA, 95204",True,37.97378811400006,-121.30201315199997
1720396690,"PROSTHETIC & ORTHOTIC GROUP LOS ANGELES, INC",3103489090,CULVER CITY,CA,90230,"5837A UPLANDER WAY, CULVER CITY, CA, 90230",True,33.98490003000006,-118.38595716299994
1720220817,"DIRECT THERAPY, S&P",9095686816,POMONA,CA,91767,"1900 ROYALTY DRIVE, POMONA, CA, 91767",True,34.07767890800005,-117.74627827399996
1649290107,SAN JOAQUIN ORTHOTICS & PROSTHETICS,2099320170,STOCKTON,CA,95204,"2211 N CALIFORNIA ST, STOCKTON, CA, 95204",True,37.97365212500006,-121.29027106499996
1376883660,WEST COAST DME & SUPPLIES LLC,9094773117,RIVERSIDE,CA,92507,"1835 CHICAGO AVE, RIVERSIDE, CA, 92507",True,33.99496139000007,-117.34842837199994
1548576366,DIABLO PROSTHETICS & ORTHOTICS INC.,9259307700,WALNUT CREEK,CA,94598,"120 LA CASA VIA, WALNUT CREEK, CA, 94598",True,37.91209721700005,-122.04191410699997
1174909402,"HANGER PROSTHETICS & ORTHOTICS WEST, INC.",5302045123,DAVIS,CA,95616,"635 ANDERSON RD, DAVIS, CA, 95616",True,38.54798164400006,-121.75874581299996
1053782912,"ROBARD BIONICS, INC",2817854554,DEL MAR,CA,92014,"12865 POINTE DEL MAR WAY, DEL MAR, CA, 92014",True,32.933014451000076,-117.24298104199994
1295053858,"AVASCO MEDICAL SUPPLY, INC",8055225333,SIMI VALLEY,CA,93063,"4268 E LOS ANGELES AVE, SIMI VALLEY, CA, 93063",True,34.271669046000056,-118.71144850599995
1952798373,EMBRACE ORTHOTICS LLC,5103383400,OAKLAND,CA,94612,"2710 TELEGRAPH AVE, OAKLAND, CA, 94612",True,37.816339965000054,-122.26782579099995
1912243700,ALIGN CLINIC LLC,6503752231,SAN MATEO,CA,94402,"700 S CLAREMONT ST, SAN MATEO, CA, 94402",True,37.56437700500004,-122.31838192099997
1386019545,NORELL PROSTHETICS ORTHOTICS INC,9094568889,ONTARIO,CA,91761,"3200 E GUASTI RD, ONTARIO, CA, 91761",True,34.06571657400008,-117.58202572399995
1407877335,"ALLEN ORTHOPEDIC LABS, INC.",4159251333,SAN RAFAEL,CA,94901,"711 D ST, SAN RAFAEL, CA, 94901",True,37.97072214800005,-122.53244043599994
1306202353,"DUCENS MED-TECH, INC",8185178743,WEST COVINA,CA,91790,"933 S SUNSET AVE, WEST COVINA, CA, 91790",True,34.06165529700007,-117.94581188299998
1720068000,APPLIED ORTHOTICS AND PROSTHETICS,4083589741,LOS GATOS,CA,95032,"700 W PARR AVE, LOS GATOS, CA, 95032",True,37.26404931800005,-121.96747018299999
1689030116,NICHOLAS J SHUBIN DDS INC,9496612015,SAN JUAN CAPISTRANO,CA,92675,"27184 ORTEGA HWY, SAN JUAN CAPISTRANO, CA, 92675",True,33.50302598300004,-117.65677233899999
1578920799,SOLE INNOVATIONS,5305877461,TRUCKEE,CA,96161,"10051 LAKE AVE, TRUCKEE, CA, 96161",True,39.325621417000036,-120.20263693999999
1053785022,"HANGER PROSTHETICS & ORTHOTICS WEST, INC",6616954506,BAKERSFIELD,CA,93311,"500 OLD RIVER RD, BAKERSFIELD, CA, 93311",True,35.351464674000056,-119.114379268
1558720649,"SECOND SIGHT MEDICAL PRODUCTS, INC.",8188335000,SYLMAR,CA,91342,"12744 SAN FERNANDO RD, SYLMAR, CA, 91342",True,34.30174970100006,-118.46169899899996
1235590423,BILL VALENTINE OPTICAL,8183891760,GLENDALE,CA,91207,"524 E GLENOAKS BLVD, GLENDALE, CA, 91207",True,34.158307781000076,-118.24986808499995
1437511003,HOPE ARTIFICIAL LIMB AND BRACE,3232464645,MONTEBELLO,CA,90640,"2609 W BEVERLY BLVD, MONTEBELLO, CA, 90640",True,34.020976586000074,-118.13135078599998
1578615746,"HITTENBERGER ORTHOTICS AND PROSTHETICS, LLC",7077651122,PETALUMA,CA,94954,"181 LYNCH CREEK WAY, PETALUMA, CA, 94954",True,38.25169765000004,-122.63481023699995
1376861815,"DYNAMICS ORTHOTICS & PROSTHETICS, INC",8188980234,MISSION HILLS,CA,91345,"11550 INDIAN HILLS RD, MISSION HILLS, CA, 91345",True,34.27998546600003,-118.45892699899997
1649514845,"DYNAMICS ORTHOTICS & PROSTHETICS, INC.",7602426444,APPLE VALLEY,CA,92307,"16077 KAMANA RD, APPLE VALLEY, CA, 92307",True,34.543264167000075,-117.27087426899999
1770931438,A GREATER HOPE,6192943436,SAN DIEGO,CA,92108,"2515 CAMINO DEL RIO S, SAN DIEGO, CA, 92108",False,,
1215382700,HEALING HANDS REHAB INC,8187933837,ENCINO,CA,91316,"5400 BALBOA BLVD, ENCINO, CA, 91316",True,34.16888296800005,-118.50108167199994
1912225459,"DYNAMICS ORTHOTICS & PROSTHETICS, INC.",3107811780,TORRANCE,CA,90502,"1001 W CARSON ST, TORRANCE, CA, 90502",True,33.831578723000064,-118.29302001799999
1992165815,"HOPE ARTIFICIAL LIMB & BRACE,LLC",3232464645,MONTEBELLO,CA,90640,"2609 W BEVERLY BLVD, MONTEBELLO, CA, 90640",True,34.020976586000074,-118.13135078599998
1720430739,"DAVID J. HAUPT, DPM",9497063838,NEWPORT BEACH,CA,92660,"400 NEWPORT CENTER DR, NEWPORT BEACH, CA, 92660",True,33.614066095000055,-117.87290582299994
1891083473,"DIABLO PROSTHETICS AND ORTHOTICS, INC",9255525100,SAN RAMON,CA,94583,"5601 NORRIS CANYON RD, SAN RAMON, CA, 94583",True,37.77827785000005,-121.96010931699999
1710390083,QUALITY ORTHOTICS PROSTHETICS INC,9096297615,POMONA,CA,91767,"319 E FOOTHILL BLVD, POMONA, CA, 91767",True,34.107193505000055,-117.74353318499999
1487895975,DREW HITTENBERGER,7077651122,PETALUMA,CA,94954,"181 LYNCH CREEK, PETALUMA, CA, 94954",False,,
1437468501,DREW HITTENBERGER,7077651122,PETALUMA,CA,94954,"181 LYNCH CREEK WAY, PETALUMA, CA, 94954",True,38.25169765000004,-122.63481023699995
1891241618,"CAPSTONE ORTHOPEDIC, INC",5108232646,EMERYVILLE,CA,94608,"2326 POWELL ST, EMERYVILLE, CA, 94608",True,37.837241052000024,-122.30094131399994
1215484720,TELEHEALTH CLINICAL SERVICES,6196946389,SAN DIEGO,CA,92108,"2667 CAMINO DEL RIO SOUTH, SAN DIEGO, CA, 92108",False,,
1437263019,"ORTHOPEDIC TECHNOLOGIES, INC.",5419677100,FAIRFIELD,CA,94533,"2936 SUNBIRD DR, FAIRFIELD, CA, 94533",True,38.28317774200008,-122.03328364899994
1598858284,"PROSTHETIC SOLUTIONS, INC.",4088459245,SANTA CLARA,CA,95054,"3350 SCOTT BLVD, SANTA CLARA, CA, 95054",True,37.38060570300007,-121.97862216399994
1053798454,ANCHOR O AND P BY THE BAY INC,6503643088,REDWOOD CITY,CA,94063,"617 VETERANS BLVD, REDWOOD CITY, CA, 94063",True,37.49225934900005,-122.23192305699996
1760926711,GOODARCH HEALTH TECH CORP.,6269616059,CITY OF INDUSTRY,CA,91745,"16025 GALE AVE, CITY OF INDUSTRY, CA, 91745",True,34.009175490000075,-117.95755845299999
1184160848,OPTIMUM DME INC,7143525800,TUSTIN,CA,92780,"1101 BRYAN AVE, TUSTIN, CA, 92780",True,33.742828804000055,-117.81511654999997
1659519304,HANGER PROSTHETICS & ORTHOTICS WEST INC,8185639590,BURBANK,CA,91505,"201 S BUENA VISTA ST, BURBANK, CA, 91505",True,34.15967931200004,-118.32882373799998
1811435068,"HYGEIA II MEDICAL GROUP, INC.",7145157571,CARLSBAD,CA,92011,"6241 YARROW DR, CARLSBAD, CA, 92011",True,33.12425235500007,-117.27440320699998
1205374154,"HYGEIA II MEDICAL GROUP, INC.",7145157571,CARLSBAD,CA,92011,"6241 YARROW DR, CARLSBAD, CA, 92011",True,33.12425235500007,-117.27440320699998
1699227009,THRIVE PROSTHETICS,9166713417,CARMICHAEL,CA,95608,"6600 COYLE AVE, CARMICHAEL, CA, 95608",True,38.668003088000034,-121.31092534299995
1881050185,121 CARE LLC,8555720400,SAN FRANCISCO,CA,94103,"424 9TH ST, SAN FRANCISCO, CA, 94103",True,37.77219278600006,-122.40966654899995
1225578321,NORTH BAY PROSTHETICS AND ORTHOTICS LLC,9167424334,ROSEVILLE,CA,95661,"151 N SUNRISE AVE, ROSEVILLE, CA, 95661",False,,
1174060909,"CAPSTONE ORTHOPEDIC, INC.",2098513782,STOCKTON,CA,95219,"4512 FEATHER RIVER DR, STOCKTON, CA, 95219",True,37.98234428600006,-121.34686739299997
1922542570,JEFFREY R KINDSETH DDS APC,9496612152,DANA POINT,CA,92629,"24721 LA PLZ, DANA POINT, CA, 92629",True,33.46845827900006,-117.69874818299996
1043751837,ROBERT BUSUTTIL,9093920812,POMONA,CA,91767,"319 E FOOTHILL BLVD, POMONA, CA, 91767",True,34.107193505000055,-117.74353318499999
1770517690,BIRKHOLMS ORTHOPEDIC SERVICES INC.,8059287044,SANTA MARIA,CA,93454,"510 E CHAPEL ST, SANTA MARIA, CA, 93454",True,34.95432036700004,-120.42957201599995
1043758196,ELITE BIOMECHANICAL DESIGN,5307622987,PARADISE,CA,95969,"5878 CLARK RD, PARADISE, CA, 95969",True,39.756339995000076,-121.60729621599995
1508397514,VITO'S PEDORTHIC CENTER,6268589460,COVINA,CA,91723,"143 E ROWLAND ST, COVINA, CA, 91723",True,34.07905131200005,-117.88927880199998
1598290793,ABLE ORTHO CLINIC INC,9519295000,HEMET,CA,92543,"475 W, HEMET, CA, 92543",False,,
1275908642,BONAVISTA OPTICS INC,4244045415,BURBANK,CA,91505,"3900 W ALAMEDA AVE, BURBANK, CA, 91505",True,34.15341013700004,-118.34244437099994
1255866968,NORTH BAY PROSTHETICS AND ORTHOTICS LLC,7077248985,VACAVILLE,CA,95687,"671 ELMIRA RD, VACAVILLE, CA, 95687",True,38.351752247000036,-121.95117719099994
1417490889,"PACIFIC HEALTH CARE SYSTEMS, INC.",6196673700,LEMON GROVE,CA,91945,"7846 BROADWAY, LEMON GROVE, CA, 91945",True,32.74272383500005,-117.02954743299995
1336678879,"PACIFIC MEDICAL, INC.",5594294758,VISALIA,CA,93291,"309 W MAIN ST, VISALIA, CA, 93291",True,36.33014080100003,-119.29472509299995
1013440932,ESSENTIAL ORTHOTICS AND PROSTHETICS INC,6617233700,PALMDALE,CA,93551,"360 GRAND CYPRESS AVE, PALMDALE, CA, 93551",True,34.613688179000064,-118.13515834799995
1598937047,ROBERTO D LOPEZ,7603523336,EL CENTRO,CA,92243,"496 W MAIN ST, EL CENTRO, CA, 92243",True,32.79283983200003,-115.55453531099994
1629161393,NORELL PROSTHETICS ORTHOTICS INC.,5107709010,REDWOOD CITY,CA,94063,"463 BREWSTER AVE, REDWOOD CITY, CA, 94063",True,37.49162832900004,-122.23010694299995
1205353463,"PROSTHETIC & ORTHOTIC GROUP, INC",4242994757,TORRANCE,CA,90503,"3510 TORRANCE BLVD, TORRANCE, CA, 90503",True,33.83755688300005,-118.34703076999995
1447324322,HANGER PROSTHETICS & ORTHOTICS WEST INC,4082489840,SAN JOSE,CA,95128,"125 CIRO AVE, SAN JOSE, CA, 95128",True,37.32677621100004,-121.93824327099998
1104834464,HANGER PROSTHETICS & ORTHOTICS WEST INC,5597323957,VISALIA,CA,93277,"820 S AKERS ST, VISALIA, CA, 93277",True,36.32390781500004,-119.34964592399996
1487664934,"HANGER PROSTHETICS & ORTHOTICS WEST, INC.",6505591711,MOUNTAIN VIEW,CA,94040,"298 SAN ANTONIO RD, MOUNTAIN VIEW, CA, 94040",True,37.40815028500003,-122.10844160199997
1780758656,"HANGER PROSTHETICS & ORTHOTICS WEST, INC.",2132507850,LOS ANGELES,CA,90017,"1127 WILSHIRE BLVD, LOS ANGELES, CA, 90017",True,34.05244284200006,-118.26355501199998
1144485384,"HANGER PROSTHETICS & ORTHOTICS WEST, INC.",6617539260,SANTA CLARITA,CA,91321,"23206 LYONS AVE, SANTA CLARITA, CA, 91321",True,34.379850230000045,-118.53827593199998
1043384936,HANGER PROSTHETICS & ORTHOTICS WEST INC,7603286575,RANCHO MIRAGE,CA,92270,"69730 HIGHWAY 111, RANCHO MIRAGE, CA, 92270",True,33.77095187800006,-116.44666241599998
1568536431,"HANGER PROSTHETICS & ORTHOTICS WEST, INC.",8055468666,SAN LUIS OBISPO,CA,93401,"2400 BROAD ST, SAN LUIS OBISPO, CA, 93401",True,35.26723104000007,-120.65451233299996
1689189664,WEST COAST DME & SUPPLIES LLC,9094773117,AGOURA HILLS,CA,91301,"30101 AGOURA CT, AGOURA HILLS, CA, 91301",True,34.14514271200005,-118.77692120199998
1629086970,"HANGER PROSTHETICS & ORTHOTICS WEST, INC.",7075287999,SANTA ROSA,CA,95403,"3663 N LAUGHLIN RD, SANTA ROSA, CA, 95403",False,,
1972019628,EXTENSIONS BY TASHI LLC,9096124295,DIAMOND BAR,CA,91765,"560 N DIAMOND BAR BLVD, DIAMOND BAR, CA, 91765",True,34.03043673800005,-117.80977140199997
1740354620,HANGER PROSTHETICS & ORTHOTICS WEST INC,5594317045,FRESNO,CA,93720,"1247 E ALLUVIAL AVE, FRESNO, CA, 93720",True,36.84472288200004,-119.76098384
1306350285,"ANCHOR ORTHOTICS AND PROSTHETICS, INC.",2099449990,STOCKTON,CA,95204,"2540 PACIFIC AVE, STOCKTON, CA, 95204",True,37.97378811400006,-121.30201315199997
1881100584,"ANCHOR ORTHOTICS AND PROSTHETICS, INC.",6503643088,REDWOOD CITY,CA,94063,"617 VETERANS BLVD, REDWOOD CITY, CA, 94063",True,37.49225934900005,-122.23192305699996
1508930488,HANGER PROSTHETICS & ORTHOTICS WEST INC,7602421311,APPLE VALLEY,CA,92307,"16185 KAMANA RD, APPLE VALLEY, CA, 92307",True,34.54546436900006,-117.26855090299995
1861692584,"HANGER PROSTHETICS & ORTHOTICS WEST, INC.",5302711770,GRASS VALLEY,CA,95945,"104 MARGARET LN, GRASS VALLEY, CA, 95945",True,39.229803239000034,-121.04670451299995
1316011463,HANGER PROSTHETICS & ORTHOTICS WEST INC,6503434504,SAN MATEO,CA,94401,"654 N EL CAMINO REAL, SAN MATEO, CA, 94401",True,37.572352257000034,-122.33929083999999
1992879878,HANGER PROSTHETICS & ORTHOTICS WEST INC,5306712324,YUBA CITY,CA,95991,"1215 PLUMAS ST, YUBA CITY, CA, 95991",True,39.147570141000074,-121.61757751999994
1598839649,HANGER PROSTHETICS & ORTHOTICS WEST INC,7074283800,FAIRFIELD,CA,94533,"2300 BOYNTON AVE, FAIRFIELD, CA, 94533",True,38.249863567000034,-122.06719448099994
1801245477,"SCOPE ORTHOTICS & PROSTHETICS, INC.",6195858421,CHULA VISTA,CA,91911,"895 THIRD AVE, CHULA VISTA, CA, 91911",True,32.62098797400006,-117.07194166199997
1124193297,INLAND ARTIFICIAL LIMB & BRACE,9095915818,CHINO,CA,91710,"5365 WALNUT AVE, CHINO, CA, 91710",True,34.02635081900007,-117.68778325499994
1972734267,INLAND ARTIFICIAL LIMB & BRACE,9517813011,RIVERSIDE,CA,92506,"6840 INDIANA AVENUE, RIVERSIDE, CA, 92506",True,33.94252741400004,-117.39257865599996
1568537637,INLAND ARTIFICIAL LIMB & BRACE,9512961894,TEMECULA,CA,92590,"41707 WINCHESTER RD, TEMECULA, CA, 92590",True,33.518495511000026,-117.16794379199996
1407920556,"HANGER PROSTHETICS & ORTHOTICS WEST, INC.",7076432177,VALLEJO,CA,94589,"1460 N CAMINO ALTO, VALLEJO, CA, 94589",False,,
1083937734,"BIODESIGNS, INC",8007752870,WESTLAKE VILLAGE,CA,91361,"850 HAMPSHIRE ROAD, WESTLAKE VILLAGE, CA, 91361",False,,
1851461123,ENHANCE BY LINDA REIB INC.,9166382508,SACRAMENTO,CA,95841,"4811 CHIPPENDALE DR, SACRAMENTO, CA, 95841",True,38.66280731100005,-121.35257180599996
1831367523,"HANGER PROSTHETICS & ORTHOTICS WEST, INC.",9516915000,MURRIETA,CA,92562,"24655 MONROE AVE, MURRIETA, CA, 92562",True,33.56730986300005,-117.20262059399994
1487639647,"INNOVATIVE PROSTHETIC SOLUTIONS, INC",9496990600,LAKE FOREST,CA,92630,"2 S POINTE DR, LAKE FOREST, CA, 92630",True,33.656767186000025,-117.70122024299997
1629146832,HANGER PROSTHETICS & ORTHOTICS WEST INC,5104302500,OAKLAND,CA,94621,"433 HEGENBERGER RD, OAKLAND, CA, 94621",True,37.73642699900006,-122.19707175499997
1811015639,MARTHA FAIR WILLIAMS SPORTREHAB PHYSICAL THERAPY,7074479750,VACAVILLE,CA,95688,"81 CERNON STREET, VACAVILLE, CA, 95688",True,38.35978433900004,-121.99096091799998
1881912566,"PACIFIC MEDICAL, INC.",5594382745,FRESNO,CA,93710,"6011 N FRESNO ST, FRESNO, CA, 93710",True,36.823203369000055,-119.78132844899994
1558896407,TEAM MAKENA LLC,9494741753,LOS ANGELES,CA,90045,"6801 PARK TERRACE DRIVE, LOS ANGELES, CA, 90045",True,33.97764102000008,-118.39283991799999
1669547733,INLAND ARTIFICIAL LIMB & BRACE,7145029354,ANAHEIM,CA,92805,"1700 E LINCOLN AVE, ANAHEIM, CA, 92805",True,33.840048016000026,-117.89407514099997
1518975861,"HANGER PROSTHETICS & ORTHOTICS WEST, INC.",4153469120,SAN FRANCISCO,CA,94118,"2761 GEARY BLVD, SAN FRANCISCO, CA, 94118",True,37.782228272000054,-122.44831927699994
1760989313,NORTH BAY PROSTHETICS AND ORTHOTICS LLC,9163497600,CARMICHAEL,CA,95608,"5900 COYLE AVE, CARMICHAEL, CA, 95608",True,38.66795854800006,-121.32654941399994
1689748568,"HANGER PROSTHETICS & ORTHOTICS WEST, INC.",5626989578,WHITTIER,CA,90601,"13203 HADLEY ST, WHITTIER, CA, 90601",True,33.98273596400003,-118.03488536199995
1285638718,HANGER PROSTHETICS & ORTHOTICS WEST INC,3238662555,LOS ANGELES,CA,90048,"6300 WILSHIRE BLVD, LOS ANGELES, CA, 90048",True,34.06345195500006,-118.36569311099998
1104990084,HANGER PROSTHETICS & ORTHOTICS WEST INC,6264038174,PASADENA,CA,91105,"1035 S FAIR OAKS AVE, PASADENA, CA, 91105",True,34.12800907500008,-118.15031499799994
1659445534,"HANGER PROSTHETICS & ORTHOTICS WEST, INC.",9094845700,ONTARIO,CA,91764,"3602 INLAND EMPIRE BLVD, ONTARIO, CA, 91764",True,34.07134244000002,-117.57319632599996
1306015631,TEH-SHU YANG,6264510519,SAN MARINO,CA,91108,"2916 SOMERSET PL, SAN MARINO, CA, 91108",True,34.115724974000045,-118.09302437999997
1790796530,"HANGER PROSTHETICS & ORTHOTICS WEST, INC.",9516865325,RIVERSIDE,CA,92506,"6377 RIVERSIDE AVE, RIVERSIDE, CA, 92506",True,33.95171062400004,-117.38793953999999
1679585806,"HANGER PROSTHETICS & ORTHOTICS WEST, INC.",8189076004,ENCINO,CA,91436,"16661 VENTURA BLVD, ENCINO, CA, 91436",True,34.15815502300006,-118.49626513999999
1295809176,"HANGER PROSTHETICS & ORTHOTICS WEST, INC.",9496425233,NEWPORT BEACH,CA,92663,"1501 SUPERIOR AVE, NEWPORT BEACH, CA, 92663",True,33.63013277500005,-117.92956969899996
1528234424,"GRABOWSKI & ASSOCIATES, INC.",5596253937,VISALIA,CA,93291,"1324 W CENTER AVE, VISALIA, CA, 93291",True,36.33099935800004,-119.30594179199994
1205229549,GRABOWSKI & ASSOCIATES INC,9164563937,SACRAMENTO,CA,95819,"5340 ELVAS AVE, SACRAMENTO, CA, 95819",True,38.57479744600005,-121.43426589099994
1154853034,GRABOWSKI & ASSOCIATES INC,8317174958,MONTEREY,CA,93940,"700 CASS ST, MONTEREY, CA, 93940",True,36.59374321000007,-121.89568901199999
1548718612,"PROSTHETIC & ORTHOTIC GROUP SAN GABRIEL VALLEY, INC",6262561415,DUARTE,CA,91010,"931 BUENA VISTA ST, DUARTE, CA, 91010",True,34.141262883000024,-117.97755113599999
1982197794,ADVANCE ORTHOTICS AND PROSTHETICS,6267571920,AZUSA,CA,91702,"1009 N ORANGE AVE, AZUSA, CA, 91702",True,34.13926210400007,-117.91256460799997
1740219336,"CENTER FOR INDEPENDENT REHABILITATIVE SERVICES, INC",2095491000,MODESTO,CA,95355,"1508 COFFEE RD, MODESTO, CA, 95355",True,37.665609835000055,-120.97571217099994
1154815025,ALCAM MEDICAL INC.,9517827000,SAN DIEGO,CA,92115,"6244 EL CAJON BLVD, SAN DIEGO, CA, 92115",True,32.76329495300007,-117.06399797399996
1689196099,"ACHILLES PROSTHETICS AND ORTHOTICS, INC",8058691200,SANTA BARBARA,CA,93101,"1435 STATE ST, SANTA BARBARA, CA, 93101",True,34.42556595900004,-119.70748516299994
1427563667,AMERICAN PROSTHETICS LLC,2082857050,CAMARILLO,CA,93012,"795 CAMARILLO SPRINGS RD, CAMARILLO, CA, 93012",True,34.20392897000005,-118.98500232499998
1881197911,WEST COAST VASCULAR,8056433330,VENTURA,CA,93003,"100 N BRENT ST, VENTURA, CA, 93003",True,34.27285139400004,-119.25689761099994
1043390198,DEMAR INDUSTRIES,6506159357,SOUTH SAN FRANCISCO,CA,94080,"251 SHAW ROAD, SOUTH SAN FRANCISCO, CA, 94080",True,37.641223868000054,-122.41146631999999
1346735933,"PACIFIC MEDICAL, INC.",2094904515,STOCKTON,CA,95207,"1024 W ROBINHOOD DR, STOCKTON, CA, 95207",True,37.999910638000074,-121.31891070899997
1063908358,"CAPSTONE ORTHOPEDIC, INC",8313752300,MONTEREY,CA,93940,"1011 CASS ST, MONTEREY, CA, 93940",True,36.59208072200005,-121.89659115699999
1073569554,"PROSTHETIC & ORTHOTIC GROUP, INC",5625956445,SIGNAL HILL,CA,90755,"2669 MYRTLE AVE, SIGNAL HILL, CA, 90755",True,33.80535693200005,-118.18174878899998
1760662092,"HANGER PROSTHETICS & ORTHOTICS WEST, INC.",9517667626,HEMET,CA,92545,"3024 W FLORIDA AVE, HEMET, CA, 92545",True,33.747399390000055,-117.00333237299998
1881177442,"KICKSTART O&P, LLC",9253235338,OAKLAND,CA,94609,"4651 TELEGRAPH AVE, OAKLAND, CA, 94609",True,37.83403137000005,-122.26324543499999
1881656155,"RICHTER INVESTMENTS, INC.",9497342020,IRVINE,CA,92603,"107 ROADRUNNER, IRVINE, CA, 92603",True,33.625961389000054,-117.82777342899999
1366926321,WEST COAST VASCULAR,8056433330,SANTA BARBARA,CA,93105,"2323 OAK PARK LN, SANTA BARBARA, CA, 93105",True,34.42862709900004,-119.72455448799997
1821564501,"ELEVATION PROSTHETICS AND ORTHOTICS, INC.",9162977853,ROSEVILLE,CA,95661,"106 N SUNRISE AVE, ROSEVILLE, CA, 95661",False,,
1538233416,"HANGER PROSTHETICS & ORTHOTICS WEST, INC.",4158921502,NOVATO,CA,94945,"88 ROWLAND WAY, NOVATO, CA, 94945",True,38.09695259700004,-122.55876658299997
1013275874,ELITE BIOMECHANICAL DESIGN,5305346913,OROVILLE,CA,95965,"2208 5TH AVE, OROVILLE, CA, 95965",True,39.50261617100006,-121.56485578399997
1912046012,RANCHO RESEARCH INSTITUTE,5624018115,DOWNEY,CA,90242,"7601 E IMPERIAL HWY 900 ANNEX A, DOWNEY, CA, 90242",True,33.92649545000006,-118.15663797799999
1033413075,PREFERRED PROSTHETICS INC,2099329746,STOCKTON,CA,95204,"3215 N CALIFORNIA ST, STOCKTON, CA, 95204",True,37.98097165100006,-121.29327539099995
1942732730,"ACTION ORTHOPEDIC COMPANY, LLC",2132158553,TORRANCE,CA,90505,"23332 HAWTHORNE BVLD, TORRANCE, CA, 90505",True,33.81442843900004,-118.35098719399997
1033689831,"CAPSTONE ORTHOPEDIC, INC.",5592980321,FRESNO,CA,93720,"1247 E ALLUVIAL AVE, FRESNO, CA, 93720",True,36.84472288200004,-119.76098384
1821569674,"QUALITY CARE PROSTHETICS & ORTHOTICS, INC.",8007144521,LYNWOOD,CA,90262,"3610 MARTIN LUTHER KING JR BLVD, LYNWOOD, CA, 90262",True,33.931991854000046,-118.20344236699998
1740224518,HANGER PROSTHETICS & ORTHOTICS WEST INC,6195858421,CHULA VISTA,CA,91911,"895 3RD AVE, CHULA VISTA, CA, 91911",True,32.62098797400006,-117.07194166199997
1295203131,DONN & DOFF INC,5302414040,CHICO,CA,95926,"574 MANZANITA AVE, CHICO, CA, 95926",True,39.75509724300008,-121.84334554799995
1033537964,HAIR EXTENSION CONNECTION,8584834247,SAN DIEGO,CA,92103,"3975 GOLDFINCH ST, SAN DIEGO, CA, 92103",True,32.74939544700004,-117.17136704099994
1285679258,HANGER PROSTHETICS & ORTHOTICS WEST INC,6195899980,LA MESA,CA,91942,"7863 LA MESA BLVD, LA MESA, CA, 91942",True,32.76743356600008,-117.02835983499995
1992793574,LAURENCE OF OAKLAND,5106582062,OAKLAND,CA,94609,"3324 WEBSTER ST, OAKLAND, CA, 94609",True,37.82122240600006,-122.26229434299995
1518909019,HANGER PROSTHETICS & ORTHOTICS WEST INC,7146397422,ORANGE,CA,92867,"1920 E KATELLA AVE, ORANGE, CA, 92867",True,33.80960882900007,-117.83351705099994
1497797997,HANGER PROSTHETICS & ORTHOTICS WEST INC,7609411323,VISTA,CA,92081,"1968 VIA CENTRE, VISTA, CA, 92081",True,33.18404818500005,-117.28372445699995
1255373742,HANGER PROSTHETICS & ORTHOTICS WEST INC,7604890533,ESCONDIDO,CA,92025,"475 N GRAPE ST, ESCONDIDO, CA, 92025",True,33.12706347200003,-117.07553711599996
1265731921,BEYOND PROSTHETICS INC,8314756600,SCOTTS VALLEY,CA,95066,"4404 SCOTTS VALLEY DR, SCOTTS VALLEY, CA, 95066",True,37.046786807000046,-122.01895256299997
1811287337,"PACIFIC MEDICAL, INC.",8319987729,SALINAS,CA,93901,"420 E ROMIE LN, SALINAS, CA, 93901",True,36.66038223800007,-121.64802793399997
1508252032,HANGER PROSTHETICS & ORTHOTICS WEST INC,5592211933,FRESNO,CA,93720,"1221 E SPRUCE AVE, FRESNO, CA, 93720",True,36.84195022200004,-119.76215947799994
1881790186,HANGER PROSTHETICS & ORTHOTICS WEST INC,3103205777,TORRANCE,CA,90501,"1319 W CARSON ST, TORRANCE, CA, 90501",True,33.83154983000003,-118.30002544799999
1356768261,HANGER PROSTHETICS & ORTHOTICS WEST INC,9494083320,IRVINE,CA,92618,"100 PACIFICA, IRVINE, CA, 92618",True,33.659757471000034,-117.75436334699998
1194723825,HANGER PROSTHETICS & ORTHOTICS WEST INC,8582927448,SAN DIEGO,CA,92123,"7720 CARDINAL CT, SAN DIEGO, CA, 92123",True,32.79146791800002,-117.15753733499997
1073558953,HANGER PROSTHETICS & ORTHOTICS WEST INC,8584531933,LA JOLLA,CA,92037,"4150 REGENTS PARK ROW, LA JOLLA, CA, 92037",True,32.87261730700004,-117.21738754299997
1386842748,HANGER PROSTHETICS & ORTHOTICS WEST INC,9515067850,TEMECULA,CA,92592,"31757 TEMECULA PKWY, TEMECULA, CA, 92592",True,33.47977025700004,-117.10359809299996
1316981640,HANGER PROSTHETICS & ORTHOTICS WEST INC,9493676600,MISSION VIEJO,CA,92691,"26440 LA ALAMEDA, MISSION VIEJO, CA, 92691",True,33.56460259000005,-117.66686536599997
1518907187,HANGER PROSTHETICS & ORTHOTICS WEST INC,7603360333,EL CENTRO,CA,92243,"1600 S IMPERIAL AVE, EL CENTRO, CA, 92243",True,32.77933595600007,-115.56962184399998
1891358610,"AMERICAN MEDICAL O&P CLINIC, INC.",8189885414,SHERMAN OAKS,CA,91403,"4955 VAN NUYS BLVD, SHERMAN OAKS, CA, 91403",True,34.16040151900006,-118.44870340999995
1043613821,"PEDIATRIC ORTHOTIC AND PROSTHETIC SERVICES-WEST,LLC",6263899411,PASADENA,CA,91105,"909 S FAIR OAKS AVE, PASADENA, CA, 91105",True,34.13001493500008,-118.15033627399998
1255998290,WEST COAST DME & SUPPLIES LLC,9094773117,SAN DIEGO,CA,92111,"8322 CLAIREMONT MESA BLVD, SAN DIEGO, CA, 92111",True,32.832810936000044,-117.14519697299994
1356908008,"LIMBITLESS, INC.",5593343741,VISALIA,CA,93291,"113 N CHURCH ST, VISALIA, CA, 93291",True,36.33056558800007,-119.29118756099996
1023410602,HANGER PROSTHETICS & ORTHOTICS WEST INC,2096349021,TURLOCK,CA,95382,"2020 COLORADO AVE, TURLOCK, CA, 95382",True,37.51129540900007,-120.835260689
1417329616,NORELL PROSTHETICS ORTHOTICS INC.,5107709010,ROSEVILLE,CA,95661,"735 SUNRISE AVE, ROSEVILLE, CA, 95661",True,38.733068514000024,-121.27203753799995
1922590074,PIONEER ORTHOTICS AND PROSTHETICS,9499459606,LAKE FOREST,CA,92630,"23672 BIRTCHER DR, LAKE FOREST, CA, 92630",True,33.633611246000044,-117.71685581899999
1871062539,"JOVANCE BEAUTY AND HEALTH SPA, INC.",5102232900,PINOLE,CA,94564,"1406 PINOLE VALLEY RD, PINOLE, CA, 94564",True,37.99892386500005,-122.28685358699994
1851857395,RANCHO RESEARCH INSTITUTE,5623810622,DOWNEY,CA,90242,"12707 RIVES AVE, DOWNEY, CA, 90242",True,33.925522955000076,-118.15705759699995
1275623811,"E & M PHARMACIES, INC",2134134448,LOS ANGELES,CA,90057,"2105 BEVERLY BLVD, LOS ANGELES, CA, 90057",True,34.06673622100004,-118.27041227699999
1346614203,CARE FIRST PHARMACY INC,8182012900,GLENDALE,CA,91205,"1415 E COLORADO ST, GLENDALE, CA, 91205",True,34.14278232200007,-118.23351706199998
1053964254,PREFERRED PROSTHETICS INC,6506866985,BURLINGAME,CA,94010,"1740 MARCO POLO WAY, BURLINGAME, CA, 94010",True,37.58991587200006,-122.38456437199994
1285965392,AMERICAN ORTHOTICS & PROSTHETICS,9094739308,SAN BERNARDINO,CA,92411,"1800 WESTERN AVE, SAN BERNARDINO, CA, 92411",True,34.13140935100006,-117.31823284899997
1346894227,ALCAM MEDICAL INC,8668477187,GLENDALE,CA,91214,"3747 FOOTHILL BLVD, GLENDALE, CA, 91214",True,34.23699789700004,-118.26057699499995
1023665502,KERN PROSTHETICS AND ORTHOTICS,6617174750,BAKERSFIELD,CA,93311,"9610 STOCKDALE HWY, BAKERSFIELD, CA, 93311",True,35.35443866300005,-119.10709384299997
1114574340,ALCAM MEDICAL INC,8668477187,TUSTIN,CA,92780,"2492 WALNUT AVE, TUSTIN, CA, 92780",True,33.71919714000006,-117.81009251899997
1275180408,ALCAM MEDICAL INC,8668477187,FULLERTON,CA,92832,"300 N EUCLID ST, FULLERTON, CA, 92832",True,33.87233993700005,-117.94195282299995
1508911173,J & J ARTIFICIAL LIMB & BRACE LLC,8586130958,SAN DIEGO,CA,92127,"11411 W BERNARDO CT, SAN DIEGO, CA, 92127",True,33.02107765100004,-117.08322441899998
1194026930,CHRISTINE I DIMAIO,7073037261,ROHNERT PARK,CA,94928,"5979 COMMERCE BLVD, ROHNERT PARK, CA, 94928",True,38.35315749200004,-122.71232918899995
1801249370,HANGER PROSTHETICS & ORTHOTICS WEST INC,5622104810,DOWNEY,CA,90242,"7700 IMPERIAL HWY, DOWNEY, CA, 90242",True,33.92695194100003,-118.15788473899994
1497893788,"PROSTHETIC & ORTHOTIC GROUP, INC",5629454920,WHITTIER,CA,90606,"12200 WASHINGTON BLVD, WHITTIER, CA, 90606",True,33.96756652900007,-118.05201410799998
1619243763,PREFERRED PROSTHETICS INC,2096258450,LODI,CA,95242,"1300 W LODI AVE, LODI, CA, 95242",True,38.12998182500007,-121.28871328799994
1265529028,FAMILY DRUG INC.,7073631607,NAPA,CA,94558,"592 LINCOLN AVE, NAPA, CA, 94558",True,38.31022365700005,-122.28180883199997
1124651971,"ACHILLES PROSTHETICS AND ORTHOTICS, INC",6613698903,BAKERSFIELD,CA,93311,"8800 STOCKDALE HWY, BAKERSFIELD, CA, 93311",True,35.35441017100004,-119.09945777899998
1629603741,MANE OF YOUR DREAM,9099691833,RANCHO CUCAMONGA,CA,91730,"11553 FOOTHILL BLVD, RANCHO CUCAMONGA, CA, 91730",True,34.106398005000074,-117.55315052399999
1730157009,"DESERT MEDICAL EQUIPMENT, INC",7602472903,VICTORVILLE,CA,92394,"14673 CIVIC DR, VICTORVILLE, CA, 92394",True,34.51702096400004,-117.32367239799999
1598068512,FUNDAMENTAL MEDICAL SUPPLY INC,8052302220,RESEDA,CA,91335,"7114 RESEDA BLVD, RESEDA, CA, 91335",True,34.19965343200005,-118.536035073
1982684213,CENTENNIAL MEDICAL EQUIPMENT INC,7075264675,SANTA ROSA,CA,95403,"3181 CLEVELAND AVE, SANTA ROSA, CA, 95403",True,38.47175916600003,-122.73038661099997
1669491270,CENTENNIAL MEDICAL EQUIPMENT INC,3105326065,GARDENA,CA,90248,"411 W WALNUT ST, GARDENA, CA, 90248",True,33.87462640100006,-118.27959571899999
1992785224,CENTENNIAL MEDICAL EQUIPMENT INC,6267963280,PASADENA,CA,91103,"888 N FAIR OAKS AVE, PASADENA, CA, 91103",True,34.161236565000024,-118.15059791799996
1255863726,"VALLEY ORTHOPEDIC TECHNOLOGY, INC",8186002560,VAN NUYS,CA,91405,"15243 VANOWEN STREET, VAN NUYS, CA, 91405",True,34.19392558000004,-118.46496094199995
1073973194,COMPRESSION OBSESSION,9166490700,SACRAMENTO,CA,95825,"650 UNIVERSITY AVE, SACRAMENTO, CA, 95825",True,38.567279289000055,-121.41924260099995
1598799090,"ACTION ORTHOPEDIC COMPANY, LLC",2134825226,LOS ANGELES,CA,90017,"1515 WILSHIRE BLVD, LOS ANGELES, CA, 90017",True,34.054748536000034,-118.26871924999995
1932657103,RESTORE MEDICAL INC.,7073594642,VACAVILLE,CA,95688,"770 MASON ST, VACAVILLE, CA, 95688",True,38.355048269000065,-121.98327588199999
1588606107,MOLINA ORTHOPEDIC LABORATORIES INC.,8884022992,NEWPORT BEACH,CA,92663,"414 31ST ST, NEWPORT BEACH, CA, 92663",True,33.614968189000024,-117.92997123299995
1497376156,"PERFORMANCE MASTERY CONSULTING, INC.",3109104347,HAWTHORNE,CA,90250,"3711 W 145TH ST, HAWTHORNE, CA, 90250",True,33.89998916600007,-118.33773438699995
1558370023,BEVERLY ORTHOPEDIC LABORATORY INC,3237272887,MONTEBELLO,CA,90640,"2625 W BEVERLY BLVD, MONTEBELLO, CA, 90640",True,34.02203419400007,-118.13346922299996
1154944114,KEN DME MEDICAL SUPPLIES LLC,4086673836,SAN JOSE,CA,95122,"1816 TULLY RD, SAN JOSE, CA, 95122",True,37.32319643100004,-121.82466150399995
1831713189,"PROSTHETIC & ORTHOTIC GROUP SAN GABRIEL VALLEY, INC",8185385613,VAN NUYS,CA,91411,"5658 SEPULVEDA BLVD, VAN NUYS, CA, 91411",True,34.173292239000034,-118.46615787999997
1659925998,ALCAM MEDICAL INC,8668477187,LANCASTER,CA,93534,"44439 17TH ST W, LANCASTER, CA, 93534",True,34.690189357000065,-118.16126868299995
1750573648,PAULS SHOE REPAIR AND SALES INC.,8185070314,GLENDALE,CA,91205,"1102 S GLENDALE AVE, GLENDALE, CA, 91205",True,34.13348308900004,-118.25193031799995
1235348293,ATHENA PROSTHETIC SERVICES INCORPORATED,6262566360,ARCADIA,CA,91006,"2824 FAIRGREEN AVE, ARCADIA, CA, 91006",True,34.113983579000035,-118.00818229299995
1699849570,"HANGER PROSTHETICS & ORTHOTICS WEST, INC.",9495813890,LAGUNA HILLS,CA,92653,"23961 CALLE DE LA MAGDALENA, LAGUNA HILLS, CA, 92653",True,33.60882689400006,-117.71090853099997
1801404199,COVERING WITH CARE,4242214754,CARSON,CA,90749,"21350 AVALON BLVD, CARSON, CA, 90749",False,,
1689072670,"RESTORE MEDICAL, INC.",5305272305,RED BLUFF,CA,96080,"24 ANTELOPE BLVD, RED BLUFF, CA, 96080",False,,
1295239127,"RESTORE MEDICAL, INC.",5306052114,YUBA CITY,CA,95993,"475 CENTURY PARK DR, YUBA CITY, CA, 95993",True,39.120899449000035,-121.63354531999994
1295126274,RESTORE MEDICAL INC,9259307801,WALNUT CREEK,CA,94596,"2075 N BROADWAY, WALNUT CREEK, CA, 94596",True,37.90785309800003,-122.06172737399999
1861849077,RESTORE MEDICAL INC.,2098463148,MODESTO,CA,95355,"3125 COFFEE RD, MODESTO, CA, 95355",True,37.68299958000006,-120.975966933
1164996658,RESTORE MEDICAL INC,5594396152,FRESNO,CA,93720,"7335 N 1ST ST, FRESNO, CA, 93720",True,36.84380005200006,-119.77467835799996
1801406269,RESTORE MEDICAL INC,8316007432,SANTA CRUZ,CA,95065,"1505 SOQUEL DR, SANTA CRUZ, CA, 95065",True,36.98792481300006,-121.98506399599995
1639789779,"DYNAMICS ORTHOTICS & PROSTHETICS, INC",9098813612,SAN BERNARDINO,CA,92404,"2150 N WATERMAN AVE, SAN BERNARDINO, CA, 92404",True,34.135029201000066,-117.27877951299996
1467454777,"STUART PEDORTHICS, INC.",8188318507,GRANADA HILLS,CA,91344,"17816 CHATSWORTH ST, GRANADA HILLS, CA, 91344",True,34.264893261000054,-118.52195846299998
1255337432,"BEVERLY HILLS PROSTHETICS ORTHOTICS, INC.",8189880033,VAN NUYS,CA,91411,"15230 BURBANK BLVD, VAN NUYS, CA, 91411",True,34.17210595700004,-118.46455601299999
1073505913,JOHN D HOLLINGSEAD,8054661296,ATASCADERO,CA,93422,"8260 MORRO RD, ATASCADERO, CA, 93422",True,35.47254480700008,-120.66879201599994
1386636322,ALEXANDER ORTHOPEDIC LAB,3106749179,INGLEWOOD,CA,90301,"660 E REGENT ST, INGLEWOOD, CA, 90301",True,33.964525854000044,-118.34443242699996
1053303271,THORATEC CORPORATION,9258478600,PLEASANTON,CA,94588,"6035 STONERIDGE DR, PLEASANTON, CA, 94588",False,,
1841283850,"CENTER FOR INDEPENDENT REHABILITATIVE SERVICES, INC.",4089950144,SAN JOSE,CA,95128,"2211 MOORPARK AVE, SAN JOSE, CA, 95128",True,37.31612963500004,-121.93235390499996
1881681179,"LONG BEACH ARTIFICIAL LIMB CO., INC.",5624265531,LONG BEACH,CA,90806,"2268 LONG BEACH BLVD, LONG BEACH, CA, 90806",True,33.79832584500008,-118.18936458999997
1205824521,DAMAR MEDICAL INDUSTRIES INC,5628036636,DOWNEY,CA,90242,"12460 BELLFLOWER BLVD, DOWNEY, CA, 90242",True,33.919308106000074,-118.12537590099998
1306820873,NOVIS CORPORATION,4154400444,SAN FRANCISCO,CA,94115,"1712 DIVISADERO ST, SAN FRANCISCO, CA, 94115",True,37.785425144000044,-122.43986012099998
1497732234,U.C. DAVIS MEDICAL CENTER,9167347045,SACRAMENTO,CA,95817,"2315 STOCKTON BLVD, SACRAMENTO, CA, 95817",True,38.55367692900006,-121.45683673599996
1841261955,WEST COAST ORTHOTIC & PROSTHETIC SER INC,2093331148,LODI,CA,95240,"400 E KETTLEMAN LN, LODI, CA, 95240",True,38.116086944000074,-121.26411980399996
1588636658,HOLDEN OPTICAL CO. INC.,2095269883,MODESTO,CA,95350,"1150 W ORANGEBURG AVE, MODESTO, CA, 95350",True,37.66396992600005,-121.00939374399996
1346201902,JO QUILICI,5102334707,RICHMOND,CA,94804,"2711 MACDONALD AVE, RICHMOND, CA, 94804",True,37.935052221000035,-122.34278753399997
1124071493,"CONTINUOUS POSITIVE MOTION TECHNOLOGY, INC",2094760900,STOCKTON,CA,95207,"1545 ST MARKS PLAZA, STOCKTON, CA, 95207",True,37.98887792000005,-121.32538230999995
1114971520,SAINT CRISPIN'S ORTHOPEDIC,5628022477,NORWALK,CA,90650,"12830 ROSECRANS AVE, NORWALK, CA, 90650",True,33.902284810000026,-118.05866159899995
1164466488,"KOLBERG OCULAR PRODUCTS, INC.",8586952021,SAN DIEGO,CA,92126,"9663 TIERRA GRANDE ST, SAN DIEGO, CA, 92126",True,32.89505356600006,-117.12072559099994
1952346801,"YOUNG PROSTHETICS OTHOTICS, INC.",7142209352,ANAHEIM,CA,92804,"516 S BEACH BLVD, ANAHEIM, CA, 92804",True,33.82571151700006,-117.99333630199999
1669408837,XWYZEE LLC,6617020070,VALENCIA,CA,91355,"28108 NEWHALL RANCH RD, VALENCIA, CA, 91355",True,34.442723718000025,-118.57494965299998
1265469142,RIGGS AMBULANCE SERVICE INC,2097223832,MERCED,CA,95340,"1827 CANAL STREET, MERCED, CA, 95340",True,37.30272333400006,-120.48259439899999
1356370423,ODYSSEY PROSTHETICS & ORTHOTICS INC.,9098900577,SAN BERNARDINO,CA,92408,"738 S WATERMAN AVE, SAN BERNARDINO, CA, 92408",True,34.087334490000046,-117.27875443299996
1275563173,"FEET FIRST, INC.",7603253681,PALM SPRINGS,CA,92262,"398 N PALM CANYON DR, PALM SPRINGS, CA, 92262",True,33.82852210000004,-116.54680926799995
1578596128,LEAHY PROSTHETICS & ORTHOTICS INC,8314255900,SANTA CRUZ,CA,95062,"630 FREDERICK ST, SANTA CRUZ, CA, 95062",True,36.97975450600006,-122.00433558099996
1649204801,"TEMECULA VALLEY ORTHOITCS & PROSTHETICS, INC.",9516964447,WILDOMAR,CA,92595,"36243 INLAND VALLEY DR, WILDOMAR, CA, 92595",True,33.59654485100003,-117.23679593099996
1386665487,PLP INC,9097986905,REDLANDS,CA,92374,"1362 INDUSTRIAL PARK AVE, REDLANDS, CA, 92374",True,34.06395894700006,-117.20228877899996
1295746113,"HANGER PROSTHETICS & ORTHOTICS WEST, INC.",6194251835,CHULA VISTA,CA,91910,"450 4TH AVE, CHULA VISTA, CA, 91910",True,32.63477450500005,-117.081884834
1588675474,UNIVERSAL ORTHOPEDIC CO.,5626989965,NORWALK,CA,90650,"12830 ROSECRANS AVE, NORWALK, CA, 90650",True,33.902284810000026,-118.05866159899995
1922019769,"HANGER PROSTHETICS & ORTHOTICS WEST, INC.",9096865325,TEMECULA,CA,92591,"29645 RANCHO CALIFORNIA RD, TEMECULA, CA, 92591",True,33.506508551000024,-117.14290597399997
1003824319,"DAVIS FOOT COMFORT CENTER, INC.",4156618705,SAN FRANCISCO,CA,94122,"3921 JUDAH ST, SAN FRANCISCO, CA, 94122",True,37.76050509700008,-122.50405173599995
1861401309,"RELIANT MEDICAL SUPPLIES & ORTHOTICS, INC.",3108389922,LOS ANGELES,CA,90034,"3679 MOTOR AVE, LOS ANGELES, CA, 90034",True,34.023264754000024,-118.40610400499997
1265440234,PERFORMANCE PROSTHETIC ORTHOTIC CENTER,3108292322,SANTA MONICA,CA,90404,"2820 SANTA MONICA BLVD, SANTA MONICA, CA, 90404",True,34.03493797800007,-118.47226939699999
1861405516,LYDON'S ORTHOTIC SERVICE,7074281705,FAIRFIELD,CA,94533,"1200 WESTERN STREET, FAIRFIELD, CA, 94533",True,38.274320215000046,-122.01004554099995
1750496816,"VENTURA PROSTHETIC & ORTHOTICS, INC.",8053390670,VENTURA,CA,93003,"1645 DONLON ST, VENTURA, CA, 93003",True,34.25900591800007,-119.23653272299998
1720198120,"M.WARMUTH C.O.,INC.",8056581822,VENTURA,CA,93003,"4517 MARKET ST, VENTURA, CA, 93003",True,34.257247465000034,-119.23209224599998
1710081930,ITC MEDICAL SUPPLIES INC,4153877100,SAN FRANCISCO,CA,94118,"4373 GEARY BLVD, SAN FRANCISCO, CA, 94118",True,37.780871741000055,-122.46609578599998
1043316771,R. A. MEDICAL COMPANY,7074630160,UKIAH,CA,95482,"407 E PERKINS ST, UKIAH, CA, 95482",True,39.150877224000055,-123.20224360699996
1124126628,ONTARIO PROSTHETICS,9512474140,MORENO VALLEY,CA,92553,"12981 PERRIS BLVD, MORENO VALLEY, CA, 92553",True,33.93210254000007,-117.22627574899997
1497850630,WEST COAST ORTHOTIC AND PROSTHETIC,2099424166,STOCKTON,CA,95204,"3215 N CALIFORNIA ST, STOCKTON, CA, 95204",True,37.98097165100006,-121.29327539099995
1518067511,"O AND P SERVICES, INC",9167841612,ROSEVILLE,CA,95661,"1830 SIERRA GARDENS DR, ROSEVILLE, CA, 95661",True,38.74690454500006,-121.25989856099994
1972698074,"AWCS MEDICAL, INC.",5597843333,PORTERVILLE,CA,93257,"1392 W OLIVE, PORTERVILLE, CA, 93257",True,36.06589241100005,-119.04692615099998
1548355365,SHOUSHAN GUKASYAN,8187677003,NORTH HOLLYWOOD,CA,91605,"8217 LANKERSHIM BLVD, NORTH HOLLYWOOD, CA, 91605",True,34.21980640400005,-118.38778604199996
1457445280,INLINE ORTHOTIC & PROSTHETIC,6196677000,LA MESA,CA,91942,"5360 JACKSON DR, LA MESA, CA, 91942",True,32.776565221000055,-117.01673842499997
1578659645,RIVERSIDE ARTIFICIAL LIMB & BRACE CORP,9517813011,RIVERSIDE,CA,92501,"4013 BROCKTON AVE, RIVERSIDE, CA, 92501",True,33.98200049600007,-117.38060726999998
1114013158,LOS ANGELES INSTITUTE FOR PROSTHETICS AND ORTHOTICS INC,3232661745,LOS ANGELES,CA,90022,"443 1/2 SO ATLANTIC BLVD, LOS ANGELES, CA, 90022",False,,
1316028848,EMPIRE PROSTHETIC & ORTHOTIC CENTER,7609558855,VICTORVILLE,CA,92395,"16471 VICTOR ST, VICTORVILLE, CA, 92395",True,34.52171871400003,-117.30455248099997
1821175050,"CUSTOM ORTHOPEDIC APPLIANCES, INC.",4155521330,SAN FRANCISCO,CA,94117,"340 DIVISADERO ST, SAN FRANCISCO, CA, 94117",True,37.77260608300003,-122.43726356299999
1255401915,HANGER PROSTHETICS & ORTHOTICS INC,8316495347,MONTEREY,CA,93940,"969 PACIFIC ST, MONTEREY, CA, 93940",True,36.58992823500006,-121.89989514499996
1588738462,HANGER PROSTHETICS & ORTHOTICS WEST INC,5302437622,REDDING,CA,96001,"1477 LINCOLN ST, REDDING, CA, 96001",True,40.57863554700003,-122.38916969999997
1023182904,HANGER PROSTHETICS & ORTHOTICS WEST INC,5306621117,WOODLAND,CA,95695,"155 MAIN ST, WOODLAND, CA, 95695",True,38.67753190600007,-121.78077755999999
1578637450,HANGER PROSTHETICS & ORTHOTICS WEST INC,5303456864,CHICO,CA,95926,"270 COHASSET RD, CHICO, CA, 95926",False,,
1730253881,HANGER PROSTHETICS & ORTHOTICS INC,4083585366,SAN JOSE,CA,95124,"2505 SAMARITAN DR, SAN JOSE, CA, 95124",True,37.25149705500007,-121.94997497299994
1265506141,HANGER PROSTHETICS & ORTHOTICS WEST INC,2093689683,LODI,CA,95240,"918 S FAIRMONT AVE, LODI, CA, 95240",True,38.12201307000004,-121.28575843799996
1174697056,HANGER PROSTHETICS & ORTHOTICS WEST INC,2093689683,JACKSON,CA,95642,"813 COURT ST, JACKSON, CA, 95642",True,38.35286946300005,-120.767217287
1306911227,ANCHOR ORTHOTICS & PROSTHETICS,9164840685,SACRAMENTO,CA,95821,"3838 WATT AVE, SACRAMENTO, CA, 95821",True,38.63526968000008,-121.38292283899995
1720146327,HANGER PROSTHETICS & ORTHOTICS WEST INC,9164522218,SACRAMENTO,CA,95816,"1256 32ND ST, SACRAMENTO, CA, 95816",True,38.569931489000055,-121.46444350699994
1538220587,HANGER PROSTHETICS & ORTHOTICS WEST INC.,9165361121,CARMICHAEL,CA,95608,"6403 COYLE AVE, CARMICHAEL, CA, 95608",True,38.668002055000045,-121.31473660699999
1073651139,PREMIER ORTHOTIC AND PROSTHETIC SERVICES INC,6264309253,WEST COVINA,CA,91791,"855 N LARK ELLEN AVE, WEST COVINA, CA, 91791",True,34.08474859800003,-117.91656679599998
1093857740,APPLIED ORTHOTIC SYSTEMS LTD,7145495018,SANTA ANA,CA,92704,"2414 S FAIRVIEW ST, SANTA ANA, CA, 92704",True,33.71471538900005,-117.90792551199996
1902948250,"VALLEY INSTITUTE OF PROSTHETICS & ORTHOTICS, INC",6612531191,NEWHALL,CA,91321,"23033 LYONS AVE, NEWHALL, CA, 91321",False,,
1083756993,"VALLEY INSTITUTE OF PROSTHETICS & ORTHOTICS, INC",6619490504,LANCASTER,CA,93534,"44404 16TH ST W, LANCASTER, CA, 93534",True,34.68977648500004,-118.15846955799998
1851413371,LUKES ULTIMATE COMFORT SHOES INC.,8056872696,SANTA BARBARA,CA,93105,"3419 STATE ST, SANTA BARBARA, CA, 93105",True,34.44039175700004,-119.73730016399998
1801919238,"PIERSON ENTERPRISES, INC",9495519200,IRVINE,CA,92620,"6266 IRVINE BLVD, IRVINE, CA, 92620",False,,
1740403898,CENTER FOR INDEPENDENT REHAB,2098458231,OAKDALE,CA,95361,"693 HI TECH PKWY, OAKDALE, CA, 95361",True,37.75175301500008,-120.83948569699999
1225253578,SIERRA ORTHOPEDIC LAB,2098458231,OAKDALE,CA,95361,"693 HI TECH PKWY, OAKDALE, CA, 95361",True,37.75175301500008,-120.83948569699999
1275758757,WEST COAST ORTHOTIC AND PROSTHETIC SERVICES,2098458231,OAKDALE,CA,95361,"693 HI TECH PKWY, OAKDALE, CA, 95361",True,37.75175301500008,-120.83948569699999
1073738563,WEST COAST ORTHOTIC AND PROSTHETIC,2093331148,LODI,CA,95242,"1745 W KETTLEMAN LN, LODI, CA, 95242",False,,
1063634707,"ADVANCED ARM DYNAMICS, INC.",3103723050,REDONDO BEACH,CA,90277,"123 W TORRANCE BLVD, REDONDO BEACH, CA, 90277",True,33.838257999000064,-118.38784075799998
1932313277,FRANKS FITTED ARCHES INC,7148262100,ANAHEIM,CA,92801,"2795 W LINCOLN AVE, ANAHEIM, CA, 92801",False,,
1437369014,DIRECT MEDICAL SUPPLIES,8189020665,VAN NUYS,CA,91401,"13615 VICTORY BLVD, VAN NUYS, CA, 91401",True,34.18667547200005,-118.42950021499996
1922615368,INLAND ARTIFICIAL LIMB & BRACE,7144643436,TUSTIN,CA,92780,"1101 BRYAN AVE, TUSTIN, CA, 92780",True,33.742828804000055,-117.81511654999997
1255938452,SHEEK HAIR BOUTIQUE,5597120988,FRESNO,CA,93703,"1432 N CEDAR AVE, FRESNO, CA, 93703",True,36.762039654000034,-119.75446914999998
1619433786,"TRUE AMERICAN MEDICAL SUPPLIES, LLC",4243429061,SAN PEDRO,CA,90731,"870 W 9TH ST, SAN PEDRO, CA, 90731",True,33.736071767000055,-118.29606762299994
1508845702,REDLANDS PROSTHETIC & ORTHOTIC GROUP INC,9097985853,REDLANDS,CA,92373,"1849 W REDLANDS BLVD, REDLANDS, CA, 92373",True,34.06298204500007,-117.21874651499996
1306915749,"SAN FRANCISCO PROSTHETIC ORTHOTIC SERVICE, INC.",4158614146,SAN FRANCISCO,CA,94117,"330 DIVISADERO ST, SAN FRANCISCO, CA, 94117",True,37.77252648900003,-122.43724702399999
1285640979,PRECISION ORTHOTICS & PROSTHETICS INC,2133885847,HUNTINGTON PARK,CA,90255,"7143 SEVILLE AVE, HUNTINGTON PARK, CA, 90255",True,33.97445838600004,-118.22244658799997
1871191742,ALCAM MEDICAL INC.,9517827000,FRESNO,CA,93703,"1244 N MARIPOSA ST, FRESNO, CA, 93703",True,36.75846036400003,-119.77925255499997
1598057796,ALCAM MEDICAL INC,8668477187,VICTORVILLE,CA,92392,"15354 BONANZA RD, VICTORVILLE, CA, 92392",True,34.50334831300006,-117.32897898799996
1629084942,"CAPSTONE ORTHOPEDIC, INC.",5105371210,CASTRO VALLEY,CA,94546,"19845 LAKE CHABOT RD, CASTRO VALLEY, CA, 94546",True,37.69991803700003,-122.08782273399999
1376620492,"CAPSTONE ORTHOPEDIC, INC.",5596363800,VISALIA,CA,93291,"5412 AVENIDA DE LOS ROBLES, VISALIA, CA, 93291",True,36.328681403000076,-119.35002864699999
1144548710,"CAPSTONE ORTHOPEDIC, INC.",8314249100,SALINAS,CA,93901,"1260 S MAIN ST, SALINAS, CA, 93901",True,36.65613741800007,-121.66007156599994
1649875782,INFINITE HAIR DESIGNS,8189175840,CHATSWORTH,CA,91311,"21606 DEVONSHIRE ST, CHATSWORTH, CA, 91311",True,34.25722780600006,-118.60047218599999
1376568162,HUMAN DESIGNS PROSTHETIC AND ORTHOTIC LABORATORY INC.,6264457797,ARCADIA,CA,91006,"49 E FOOTHILL BLVD, ARCADIA, CA, 91006",True,34.150999470000045,-118.02976871799996
1437745858,"AUDWICK, LLC",4159332264,SACRAMENTO,CA,95815,"1811 DEL PASO BLVD, SACRAMENTO, CA, 95815",True,38.60824342300003,-121.45474841299995
1114269560,ESTHETIC EYES INC,3102718801,BEVERLY HILLS,CA,90210,"9615 BRIGHTON WAY, BEVERLY HILLS, CA, 90210",True,34.06829580900006,-118.40428247999995
1023070885,"VOGUE PROSTHETIC ORTHOTIC CENTER, INC",8183492230,NORTHRIDGE,CA,91325,"18250 ROSCOE BLVD, NORTHRIDGE, CA, 91325",True,34.22081254900007,-118.53008750499998
1033134903,"FERRACO, INC.",5629882414,LONG BEACH,CA,90806,"2933 LONG BEACH BLVD, LONG BEACH, CA, 90806",True,33.810500355000045,-118.18940456899998
1093303265,JONNA TRICHOLOGY & HAIR LOSS CLINIC LLC,6196460358,SAN DIEGO,CA,92108,"3435 CAMINO DEL RIO S, SAN DIEGO, CA, 92108",False,,
1437747151,"AWESOMFIT, INC",2095229911,SALIDA,CA,95368,"5331 PIRRONE RD, SALIDA, CA, 95368",True,37.72016811800006,-121.09709561099999
1366953168,"ACTIVE LIFE, LLC",8184954610,PALMDALE,CA,93550,"190 SIERRA CT, PALMDALE, CA, 93550",True,34.64019683600003,-118.12802451399995
1679797013,"CAPSTONE ORTHOPEDIC, INC.",5308946400,CHICO,CA,95926,"250 COHASSET RD, CHICO, CA, 95926",False,,
1932791795,"PACIFIC MEDICAL, INC.",6613816552,BAKERSFIELD,CA,93301,"1909 16TH ST, BAKERSFIELD, CA, 93301",True,35.37235961500005,-119.02370991299995
1407957780,HANGER PROSTHETICS & ORTHOTICS WEST INC.,9097921900,REDLANDS,CA,92374,"1177 IDAHO ST, REDLANDS, CA, 92374",True,34.06938754500004,-117.21548669799995
1982057394,HANGER PROSTHETICS & ORTHOTICS WEST INC,9097403820,ONTARIO,CA,91764,"2930 E INLAND EMPIRE BLVD, ONTARIO, CA, 91764",True,34.070212764000075,-117.58946078199995
1740291541,"HANGER PROSTHETICS & ORTHOTICS WEST, INC.",5624322987,LONG BEACH,CA,90813,"1043 ELM AVE, LONG BEACH, CA, 90813",True,33.77982859700006,-118.18799152899999
1790796514,"HANGER PROSTHETICS & ORTHOTICS WEST, INC.",7604791866,ENCINITAS,CA,92024,"351 SANTA FE DR, ENCINITAS, CA, 92024",True,33.03623115200003,-117.28500256299998
1205900172,HANGER PROSTHETICS & ORTHOTICS WEST INC,5628033322,DOWNEY,CA,90242,"7700 IMPERIAL HWY, DOWNEY, CA, 90242",True,33.92695194100003,-118.15788473899994
1922172808,"HANGER PROSTHETICS & ORTHOTICS WEST, INC.",6269740031,COVINA,CA,91724,"1270 E GARVEY ST, COVINA, CA, 91724",True,34.070973381000044,-117.86300776299998
1588756647,"HANGER PROSTHETICS & ORTHOTICS WEST, INC.",9518983614,CORONA,CA,92879,"341 MAGNOLIA AVE, CORONA, CA, 92879",True,33.855255631000034,-117.56095053399997
1932273810,"HANGER PROSTHETICS & ORTHOTICS WEST, INC.",5308233143,AUBURN,CA,95603,"1755 GRASS VALLEY HWY, AUBURN, CA, 95603",True,38.92781518700008,-121.08702233899999
1669863114,"PROSTHETIC ARTISTS, INC.",9164854249,SACRAMENTO,CA,95825,"1736 PROFESSIONAL DR, SACRAMENTO, CA, 95825",True,38.596500751000065,-121.38704774099995
1407449648,BEVERLY ORTHOPEDIC LABORATORY INC,6572474301,SANTA ANA,CA,92705,"801 N TUSTIN AVE, SANTA ANA, CA, 92705",False,,
1871186981,BEVERLY ORTHOPEDIC LABORATORY INC,3104383645,LYNWOOD,CA,90262,"3737 MARTIN LUTHER KING JR BLVD, LYNWOOD, CA, 90262",True,33.92846172600008,-118.20035350299997
1225622921,ADVANCED CARE PROSTHETICS AND ORTHOTICS,3238946888,LOS ANGELES,CA,90010,"4929 WILSHIRE BLVD, LOS ANGELES, CA, 90010",True,34.062115885000026,-118.33806756699994
1134713522,PEARLLA MEDICAL AESTHETICS,3109299344,BEVERLY HILLS,CA,90212,"9350 WILSHIRE BLVD, BEVERLY HILLS, CA, 90212",True,34.06707072200004,-118.39587258199998
1740213362,"HANGER PROSTHETICS & ORTHOTICS WEST, INC.",9167846900,ROSEVILLE,CA,95661,"1411 SECRET RAVINE PKWY, ROSEVILLE, CA, 95661",True,38.76414108000006,-121.24410751099998
1871179085,BEVERLY ORTHOPEDIC LABORATORY INC,2133513556,LOS ANGELES,CA,90006,"3000 W OLYMPIC BLVD, LOS ANGELES, CA, 90006",True,34.052621042000055,-118.30009389899999
1861674574,"MONTEREY PENNINSULA ORTHOTIC AND PROSTHETIC SERVICES,LLC",8316553580,MONTEREY,CA,93940,"30 RAGSDALE DR, MONTEREY, CA, 93940",True,36.57824824800008,-121.82344681899997
1891374310,WEST COAST DME & SUPPLIES LLC,9094773117,PALMDALE,CA,93551,"41331 12TH ST W, PALMDALE, CA, 93551",True,34.633648202000074,-118.15175436899995
1841479573,"ADVANCED BIONICS, LLC.",8777790229,VALENCIA,CA,91355,"28515 WESTINGHOUSE PL, VALENCIA, CA, 91355",True,34.44232207700003,-118.59943568399996
1437406683,"CENTURY PACIFIC MEDICAL, INC.",8002394119,ALISO VIEJO,CA,92656,"115 GAUGUIN CIR, ALISO VIEJO, CA, 92656",True,33.55705289100007,-117.72124618699996
1861927923,"NATIONWIDE PRIME MEDICAL SUPPLIES, LLC",7609940336,CARLSBAD,CA,92008,"2575 PIO PICO DR, CARLSBAD, CA, 92008",True,33.16938261900003,-117.34448386799994
1548312507,DIABLO PROSTHETICS & ORTHOTICS INC.,9254646400,PLEASANTON,CA,94588,"4479 STONERIDGE DR, PLEASANTON, CA, 94588",False,,
1114974797,"PHARMACY ALTERNATIVES CALIFORNIA, LLC",5303473721,COTTONWOOD,CA,96022,"20635 GAS POINT RD, COTTONWOOD, CA, 96022",True,40.38928235100008,-122.29203068199996
1154406171,ECONOMY MEDICAL INC,9256714800,CONCORD,CA,94520,"4025 NELSON AVENUE, CONCORD, CA, 94520",True,38.00713739100007,-122.04564074199999
1871516203,BIONESS INC.,6613624850,VALENCIA,CA,91355,"25103 RYE CANYON LOOP, VALENCIA, CA, 91355",True,34.45456845900003,-118.57996600599995
1851615363,"A G & Y ENTERPRISES, INC.",6262098160,COVINA,CA,91722,"1009 W SAN BERNARDINO RD, COVINA, CA, 91722",True,34.08890821800003,-117.90965497799999
1720655020,"BIO ORTHOPEDIC LAB, LLC",8779446243,SANTA ANA,CA,92705,"1530 E EDINGER AVE, SANTA ANA, CA, 92705",True,33.726710153000056,-117.84977344299995
1679140677,"CAPSTONE ORTHOPEDIC, INC",5599999999,MERCED,CA,95340,"2926 G ST, MERCED, CA, 95340",True,37.312805525000044,-120.46939432399995
1144897018,BIONICS ORTHOTICS AND PROSTHETICS INC.,8582709972,SAN DIEGO,CA,92117,"3737 MORAGA AVE, SAN DIEGO, CA, 92117",True,32.80924599300005,-117.21134915099998
1669735528,"DANIEL ALAIN, INC.",9497069880,NEWPORT BEACH,CA,92660,"520 NEWPORT CENTER DR, NEWPORT BEACH, CA, 92660",True,33.61584605500008,-117.87231149499996
1396312062,BIONICS ORTHOTICS AND PROSTHETICS INC.,8582709972,SAN MARCOS,CA,92078,"1553 GRAND AVE, SAN MARCOS, CA, 92078",True,33.145114557000056,-117.19771315399998
1043205180,PIH HEALTH WHITTIER HOSPITAL,5626980811,WHITTIER,CA,90606,"12393 WASHINGTON BLVD, WHITTIER, CA, 90606",True,33.96716148400003,-118.04968031199996
1194717520,GOLDEN STATE MEDICAL INC,8006962900,AUBURN,CA,95603,"200 LINDEN AVE, AUBURN, CA, 95603",True,38.898877983000034,-121.06994046299997
1154991966,UPTOWN NEW YORK STYLE INC,8582596833,SOLANA BEACH,CA,92075,"524, SOLANA BEACH, CA, 92075",False,,
1083284590,"ACTIVE LIFE, LLC",9097480168,RANCHO MIRAGE,CA,92270,"72780 COUNTRY CLUB DR, RANCHO MIRAGE, CA, 92270",True,33.757904920000044,-116.39568567799995
1487687083,STRUT HAIR SOLUTIONS INC.,8587559447,SOLANA BEACH,CA,92075,"202 LOMAS SANTA FE DR, SOLANA BEACH, CA, 92075",True,32.99238139300007,-117.26914942199994
1225032162,HANGER PROSTHETICS & ORTHOTICS WEST INC,7146352650,ANAHEIM,CA,92807,"1287 N TUSTIN AVE, ANAHEIM, CA, 92807",True,33.86228990400008,-117.84191008799996
1245698984,AT LAST BRA AND LINGERIE BOUTIQUE LLC,9164809501,SACRAMENTO,CA,95825,"1329 HOWE AVE, SACRAMENTO, CA, 95825",True,38.58970289300004,-121.41531522199995
1750054987,BEAUTIFUL CROWNS LLC,3109412636,NORWALK,CA,90650,"13428 BEHRENS AVE, NORWALK, CA, 90650",True,33.909136207000074,-118.10418577499996
1497731533,DJO LLC,9729564323,CARLSBAD,CA,92010,"5919 SEA OTTER PL, CARLSBAD, CA, 92010",True,33.133962686000075,-117.25061980999999
1760523021,UCSF MEDICAL GROUP BUSINESS SERVICES,4154761788,SAN FRANCISCO,CA,94143,"400 PARNASSUS AVE, SAN FRANCISCO, CA, 94143",True,37.76352307800005,-122.45771606799997
1386318541,AXIS ORTHOPEDIC INC.,6267034603,ALHAMBRA,CA,91801,"25 S RAYMOND AVE, ALHAMBRA, CA, 91801",True,34.09095014300004,-118.14500018299998
1316612575,COASTAL P&O LLC,7146145981,MISSION VIEJO,CA,92691,"26300 LA ALAMEDA, MISSION VIEJO, CA, 92691",True,33.56516788400006,-117.66641663399997
1154997633,HAIR WITH A CAUSE,4242884969,LOS ANGELES,CA,90035,"1523 S LA CIENEGA BLVD, LOS ANGELES, CA, 90035",True,34.04995396500004,-118.37614009299995
1114567765,"CRANIAL TECHNOLOGIES, INC.",8444475894,MOUNTAIN VIEW,CA,94040,"515 SOUTH DR, MOUNTAIN VIEW, CA, 94040",True,37.36727053900006,-122.08423281299997
1205426657,"CRANIAL TECHNOLOGIES, INC.",8444475894,POMONA,CA,91768,"801 CORPORATE CENTER DR, POMONA, CA, 91768",True,34.06398774100006,-117.80061255699997
1326349630,CRANIAL TECHNOLOGIES INC,4804036300,ORANGE,CA,92868,"1010 W LA VETA AVE, ORANGE, CA, 92868",True,33.78031821500008,-117.86337320799998
1376183848,"CRANIAL TECHNOLOGIES, INC.",8444475894,FRESNO,CA,93720,"30 E RIVER PARK PL W, FRESNO, CA, 93720",True,36.860764258000074,-119.78970359299996
1407468416,"CRANIAL TECHNOLOGIES, INC.",8444475894,ESCONDIDO,CA,92025,"488 E VALLEY PKWY, ESCONDIDO, CA, 92025",True,33.12506603800006,-117.07719221199994
1568587160,CRANIAL TECHNOLOGIES INC,8585711217,SAN DIEGO,CA,92123,"8010 FROST ST, SAN DIEGO, CA, 92123",True,32.80024950500007,-117.15257647799996
1588842330,CRANIAL TECHNOLOGIES INC,8669231044,PASADENA,CA,91105,"200 E DEL MAR BLVD, PASADENA, CA, 91105",True,34.140451219000056,-118.14595259199996
1629624127,"CRANIAL TECHNOLOGIES, INC.",8444475894,SAN FRANCISCO,CA,94109,"1100 VAN NESS AVE, SAN FRANCISCO, CA, 94109",True,37.785737650000044,-122.42128602599996
1629629845,"CRANIAL TECHNOLOGIES, INC.",8444475894,OAKLAND,CA,94609,"3300 WEBSTER ST, OAKLAND, CA, 94609",True,37.82104732400006,-122.26253656999995
1669759486,CRANIAL TECHNOLOGIES INC,3102313406,LOS ANGELES,CA,90025,"11620 WILSHIRE BLVD, LOS ANGELES, CA, 90025",True,34.05051296900007,-118.45954796199999
1740812387,"CRANIAL TECHNOLOGIES, INC.",8444475894,LONG BEACH,CA,90813,"1040 ELM AVE, LONG BEACH, CA, 90813",True,33.77979512700006,-118.18797826099996
1821696592,"CRANIAL TECHNOLOGIES, INC.",8444475894,STOCKTON,CA,95219,"3031 W MARCH LN, STOCKTON, CA, 95219",True,37.98413457600003,-121.35012555599997
1891211942,"CRANIAL TECHNOLOGIES, INC.",8444475894,RIVERSIDE,CA,92505,"4244 RIVERWALK PKWY, RIVERSIDE, CA, 92505",True,33.903185602000065,-117.49392866099998
1972147916,"CRANIAL TECHNOLOGIES, INC.",8444475894,SACRAMENTO,CA,95816,"2825 J ST, SACRAMENTO, CA, 95816",True,38.57374535500003,-121.46882324899997
1245806769,"CRANIAL TECHNOLOGIES, INC.",8444475894,LOS ANGELES,CA,90027,"1965 HILLHURST AVE, LOS ANGELES, CA, 90027",True,34.10713229800007,-118.28742552599999
1831582220,KMY PROSTHETIC & ORTHOTIC INC.,5592773909,FRESNO,CA,93710,"6137 N THESTA ST, FRESNO, CA, 93710",True,36.82533472000006,-119.78309285099999
1033283916,"HANGER PROSTHETICS & ORTHOTICS WEST, INC.",2097251295,MERCED,CA,95340,"436 E YOSEMITE AVE, MERCED, CA, 95340",True,37.33211972700008,-120.46367410099998
1073285409,CB THE BRAND,3108174243,GARDENA,CA,90249,"13907 VAN NESS AVE, GARDENA, CA, 90249",True,33.90533154000008,-118.31780224399995
1952077083,"TOPP, LLC",6572918738,FULLERTON,CA,92835,"111 W BASTANCHURY RD, FULLERTON, CA, 92835",True,33.89495743200007,-117.93039008299996
1376897462,"FERRACO, INC.",5628691737,DOWNEY,CA,90241,"8734 CLETA ST, DOWNEY, CA, 90241",True,33.93133751100004,-118.12861545199996
1578794194,"FERRACO, INC.",7142588144,TUSTIN,CA,92780,"1541 PARKWAY LOOP, TUSTIN, CA, 92780",True,33.71969665200004,-117.82854412599994
1609530203,E'SINAJ AESTHETICS LLC,8668481407,OAKLAND,CA,94612,"1423 BROADWAY, OAKLAND, CA, 94612",True,37.804582469000025,-122.27108840699998
1376208660,POSTICHE RX LLC,4156236446,RICHMOND,CA,94805,"3813 MACDONALD AVE, RICHMOND, CA, 94805",True,37.933690830000046,-122.33315786399999
1467117523,"CRANIAL TECHNOLOGIES, INC.",8444475894,NATIONAL CITY,CA,91950,"1722 SWEETWATER RD, NATIONAL CITY, CA, 91950",True,32.661554247000026,-117.08164899299999
1487221347,TRESSES BY DREAM LESS. LLC,5102245496,WALNUT CREEK,CA,94595,"1940 TICE VALLEY BLVD, WALNUT CREEK, CA, 94595",True,37.87789909000003,-122.07406961399994
1386300168,"CRANIAL TECHNOLOGIES, INC.",8444475894,WHITTIER,CA,90603,"15141 WHITTIER BLVD, WHITTIER, CA, 90603",True,33.94859943800003,-118.00561193699997
1922261593,HEALTHY STANDARDS INC,3237210001,GLENDALE,CA,91204,"445 W GARFIELD AVE, GLENDALE, CA, 91204",True,34.135348184000065,-118.26199377699999
1417578121,"SIERRA ORTHOPEDIC LABORATORY, INC.",7075289808,PETALUMA,CA,94954,"157 LYNCH CREEK WAY, PETALUMA, CA, 94954",True,38.25205089000008,-122.63423399099997
1942374822,HANGER PROSTHETICS & ORTHOTICS WEST INC,7074440116,EUREKA,CA,95503,"2773 HARRIS ST, EUREKA, CA, 95503",True,40.78046978800006,-124.13642577899998
1205900180,HANGER PROSTHETICS & ORTHOTICS WEST INC,2094662546,STOCKTON,CA,95204,"644 E HARDING WAY, STOCKTON, CA, 95204",True,37.968866871000046,-121.28582663399999
1285269035,CROWN CITY ORTHOTICS AND PROSTHETICS LLC.,6264312890,PASADENA,CA,91107,"2824 E FOOTHILL BLVD, PASADENA, CA, 91107",True,34.14991715000008,-118.09224409399997
1356415236,HANGER PROSTHETICS & ORTHOTICS WEST INC,4158837221,MODESTO,CA,95350,"1707 MCHENRY AVE, MODESTO, CA, 95350",True,37.668978509000056,-120.99399799699995
1700207677,MOLINA PROSTHETICS & ORTHOTICS,9499887928,IRVINE,CA,92612,"2222 MARTIN, IRVINE, CA, 92612",False,,
1518932631,UNIVERSITY OF CALIFORNIA SFGH MEDICAL GROUP,6282064387,SAN FRANCISCO,CA,94110,"2550 23RD ST, SAN FRANCISCO, CA, 94110",True,37.75438550300004,-122.40476156399995
1164182796,"AWESOMFIT, INC",2093349911,LODI,CA,95240,"900 S FAIRMONT AVE, LODI, CA, 95240",True,38.12262425400007,-121.28576856799998
1093277485,AMERICAN SURGICAL MEDICAL SUPPLY INC,8666117205,LOMA LINDA,CA,92354,"24735 REDLANDS BLVD, LOMA LINDA, CA, 92354",True,34.06306252600007,-117.26490606499999
1831263714,"HANGER PROSTHETICS & ORTHOTICS WEST, INC.",3103737700,TORRANCE,CA,90505,"23451 MADISON ST, TORRANCE, CA, 90505",True,33.81206959200006,-118.34770472199995
1851465736,HANGER PROSTHETICS & ORTHOTICS WEST INC,2095324497,SONORA,CA,95370,"13771 MONO WAY, SONORA, CA, 95370",True,37.977842974000055,-120.34124140499995
1669133765,"MSLLL, LIMITED LIABILITY COMPANY",9164108618,CARMICHAEL,CA,95608,"5650 MARCONI AVE, CARMICHAEL, CA, 95608",True,38.61720948100003,-121.33320529699995
1942394119,"MEDEQUIP, INC",9494434414,ALISO VIEJO,CA,92656,"27 BROOKLINE, ALISO VIEJO, CA, 92656",True,33.592439769000066,-117.72823795299996
1750035127,OEI PROSTHETICS AND ORTHOTICS,8189943797,VAN NUYS,CA,91405,"15216 VANOWEN ST, VAN NUYS, CA, 91405",True,34.193915512000046,-118.46447445999996
1407140726,HANGER PROSTHETICS & ORTHOTICS WEST INC,8053390670,VENTURA,CA,93003,"1645 DONLON ST, VENTURA, CA, 93003",True,34.25900591800007,-119.23653272299998
1033295274,HANGER PROSTHETICS & ORTHOTICS WEST INC,8059258290,SANTA MARIA,CA,93454,"2345 S BROADWAY, SANTA MARIA, CA, 93454",True,34.91792307900005,-120.43610174399998
1689750820,HANGER PROSTHETICS & ORTHOTICS WEST INC,8056877508,SANTA BARBARA,CA,93105,"3010 STATE ST, SANTA BARBARA, CA, 93105",True,34.44037367900006,-119.72856702299998
1750707055,HANGER PROSTHETICS & ORTHOTICS WEST INC,7148719960,FULLERTON,CA,92835,"2151 N HARBOR BLVD, FULLERTON, CA, 92835",False,,
1851784672,HANGER PROSTHETICS & ORTHOTICS WEST INC,7143739888,WESTMINSTER,CA,92683,"14450 HOOVER ST, WESTMINSTER, CA, 92683",True,33.75190657100006,-117.99833384099998
1528060662,HANGER PROSTHETICS & ORTHOTICS WEST INC,7142101298,FOUNTAIN VALLEY,CA,92708,"16520 HARBOR BLVD, FOUNTAIN VALLEY, CA, 92708",False,,
1306840392,HANGER PROSTHETICS & ORTHOTICS WEST INC,7149371998,ORANGE,CA,92868,"623 N MAIN ST, ORANGE, CA, 92868",True,33.79646261500005,-117.86651413999999
1225032576,HANGER PROSTHETICS & ORTHOTICS WEST INC,9497227101,NEWPORT BEACH,CA,92663,"351 HOSPITAL RD, NEWPORT BEACH, CA, 92663",True,33.62571420000006,-117.92847700299995
1720573496,HANGER PROSTHETICS & ORTHOTICS WEST INC,5622068032,LONG BEACH,CA,90806,"500 E WILLOW ST, LONG BEACH, CA, 90806",True,33.80442612300004,-118.18709242599999
1790092237,HANGER PROSTHETICS & ORTHOTICS WEST INC,9497707331,MISSION VIEJO,CA,92691,"25982 PALA, MISSION VIEJO, CA, 92691",True,33.61987757400004,-117.67727434399995
1356014971,UCSF MEDICAL GROUP BUSINESS SERVICES,4154761788,REDWOOD CITY,CA,94065,"290 REDWOOD SHORES PKWY, REDWOOD CITY, CA, 94065",True,37.52113762600004,-122.25265298099998
1699422345,EMBRACE BEAUTY BAR LLC,7608326372,CATHEDRAL CITY,CA,92234,"68345 E PALM CANYON DR, CATHEDRAL CITY, CA, 92234",True,33.78118815300007,-116.46926035399997
1013173848,"SPECTRUM PROSTHETICS & ORTHOTICS OF REDDING, INC.",5305282200,RED BLUFF,CA,96080,"1399 MONTGOMERY RD, RED BLUFF, CA, 96080",True,40.156447153000045,-122.225146043
1205583606,VITOS PEDORTHIC CENTER INC,6268589460,COVINA,CA,91723,"143 E ROWLAND ST, COVINA, CA, 91723",True,34.07905131200005,-117.88927880199998
1316695307,TMF INTERNATIONAL INC,3109855300,CALABASAS,CA,91301,"27001 AGOURA RD, CALABASAS, CA, 91301",True,34.13809915300004,-118.71363691399995
1467624882,NOREEN N OSWELL D P M INC,3103600001,LOS ANGELES,CA,90048,"8631 W 3RD ST, LOS ANGELES, CA, 90048",True,34.073583660000054,-118.38049920499998
1891787594,"BREG, INC.",7607955440,CARLSBAD,CA,92010,"2885 LOKER AVE E, CARLSBAD, CA, 92010",True,33.13204146600003,-117.24784088399997
1982198842,ALCAM MEDICAL INC.,9517827000,MONTCLAIR,CA,91763,"5153 HOLT BLVD, MONTCLAIR, CA, 91763",True,34.063214953000056,-117.69298258799995
1952759359,ALCAM MEDICAL INC.,9517827000,SANTA ANA,CA,92705,"1533 S GRAND AVE, SANTA ANA, CA, 92705",True,33.72726749200007,-117.85047765699994
1902224884,ALCAM MEDICAL INC,9517827000,PALM SPRINGS,CA,92262,"1281 N GENE AUTRY TRL, PALM SPRINGS, CA, 92262",True,33.84074736700006,-116.50624307399994
1548754401,ALCAM MEDICAL INC.,9517827000,HAWTHORNE,CA,90250,"12950 HAWTHORNE BLVD, HAWTHORNE, CA, 90250",True,33.91461044600004,-118.35237769799994
1164586103,"ALCAM MEDICAL, INC.",9517827000,RIVERSIDE,CA,92507,"1760 CHICAGO AVE, RIVERSIDE, CA, 92507",True,33.99560789000003,-117.34841275899998
1760968796,HANGER PROSTHETICS & ORTHOTICS WEST INC,5622068025,LAKEWOOD,CA,90712,"3650 E SOUTH ST, LAKEWOOD, CA, 90712",True,33.86021016300003,-118.14998559299994
1902484553,"CRANIAL TECHNOLOGIES, INC.",8444475894,SAN JOSE,CA,95139,"7030 SANTA TERESA BLVD, SAN JOSE, CA, 95139",True,37.22655866500003,-121.77632270199996
1689831885,CASTLE HILL HOLDINGS INC,9259431119,PLEASANT HILL,CA,94523,"3161 PUTNAM BLVD, PLEASANT HILL, CA, 94523",True,37.933073798000066,-122.073511441
1487806865,CASTLE HILL HOLDINGS INC,9169799729,SACRAMENTO,CA,95821,"3830 AUBURN BLVD, SACRAMENTO, CA, 95821",True,38.64010975600007,-121.37484557699997
1356083844,WHAT THE BLUSH LLC,3104288309,CULVER CITY,CA,90230,"11140 JEFFERSON BLVD, CULVER CITY, CA, 90230",True,33.996672929000056,-118.39536849999996
1639125081,ORTHO ENGINEERING INC.,3105595996,LYNWOOD,CA,90262,"3680 E IMPERIAL HWY, LYNWOOD, CA, 90262",True,33.931980975000045,-118.20163051099996
1841561503,ORTHO ENGINEERING INC.,5626936666,WHITTIER,CA,90606,"12543 LAMBERT RD, WHITTIER, CA, 90606",True,33.96458049800003,-118.04635388899999
1366713315,ORTHO ENGINEERING INC.,3106040000,LYNWOOD,CA,90262,"3680 E IMPERIAL HWY, LYNWOOD, CA, 90262",True,33.931980975000045,-118.20163051099996
1700026564,STELLAR PROSTHETICS AND ORTHOTICS,9099066624,ONTARIO,CA,91764,"2930 INLAND EMPIRE BLVD, ONTARIO, CA, 91764",True,34.070212764000075,-117.58946078199995
1871063420,OTTO BOCK ORTHOPEDIC SERVICES LLC,8007368276,SACRAMENTO,CA,95821,"3800 WATT AVENUE, SACRAMENTO, CA, 95821",True,38.63417319500007,-121.38291842199999
1710051693,HANGER PROSTHETICS & ORTHOTICS WEST INC,8314229646,SALINAS,CA,93901,"535 E ROMIE LN, SALINAS, CA, 93901",True,36.660007860000064,-121.64633374199997
1962601302,"ANCHOR ORTHOTICS & PROSTHETICS, INC.",9164840685,SACRAMENTO,CA,95815,"1828 TRIBUTE RD, SACRAMENTO, CA, 95815",False,,
1023389293,BENNETT MEDICAL SERVICES,9166810111,SACRAMENTO,CA,95834,"1164 NATIONAL DR, SACRAMENTO, CA, 95834",True,38.64478414300004,-121.48763754299995
1295077865,"STREAMLINE ORTHOPEDIC, INC.",9164881478,ROSEVILLE,CA,95661,"125 ASCOT DR, ROSEVILLE, CA, 95661",True,38.74250981200004,-121.26939725799997
1558559484,TAMMY L DIRKSEN,5592515557,FRESNO,CA,93727,"2039 N FINE AVE, FRESNO, CA, 93727",True,36.76915997100008,-119.72843205999999
1235391624,JASON KELLOGG M.D. INC,9493402111,NEWPORT BEACH,CA,92662,"123 TURQUOISE AVE, NEWPORT BEACH, CA, 92662",True,33.604804897000065,-117.89632812599996
1780076398,"GLOBAL SURGERIES, INC.",4156734500,SAN LEANDRO,CA,94578,"13847 E 14TH ST, SAN LEANDRO, CA, 94578",True,37.71456369400005,-122.14184471399994
1528069341,PAULS ORTHOPEDIC APPLIANCES,4155844040,SAN FRANCISCO,CA,94127,"2407 OCEAN AVE, SAN FRANCISCO, CA, 94127",True,37.73016585900007,-122.46987560399998
1437144797,DONN & DOFF INC,5302414040,REDDING,CA,96001,"2102 CIVIC CENTER DR, REDDING, CA, 96001",False,,
1225026883,ORTHOPEDICS INTERNATIONAL INC.,3102123288,TORRANCE,CA,90501,"1108 SARTORI AVE, TORRANCE, CA, 90501",True,33.83669178100007,-118.31728719399996
1851389563,UPRIGHT PROSTHETICS AND ORTHOTICS,5624610334,BELLFLOWER,CA,90706,"10132 ARTESIA PL, BELLFLOWER, CA, 90706",True,33.874845866000044,-118.11856287799998
1215925797,INLAND ARTIFICIAL LIMB & BRACE,9517341835,NORCO,CA,92860,"680 PARKRIDGE AVE, NORCO, CA, 92860",True,33.89807686700004,-117.56798860999999
1255329736,ANACAPA PROSTHETIC AND ORTHOTIC LAB,8056581388,VENTURA,CA,93003,"2300 KNOLL DR, VENTURA, CA, 93003",True,34.254472218000046,-119.22044959599998
1356450423,GOLDEN VALLEY MEDICAL & OXYGEN SERVICE,9098840445,SAN BERNARDINO,CA,92405,"424 W HIGHLAND AVE, SAN BERNARDINO, CA, 92405",True,34.135988190000035,-117.29259185199999
1144317306,DONN & DOFF INC,5309260560,MOUNT SHASTA,CA,96067,"206A ROELOFS CT, MOUNT SHASTA, CA, 96067",True,41.30282614500004,-122.30718595699994
1760556641,HANGER PROSTHETICS & ORTHOTICS WEST INC,9168639494,FAIR OAKS,CA,95628,"5525 DEWEY DR, FAIR OAKS, CA, 95628",True,38.66628396600004,-121.30864156599995
1679647556,HANGER PROSTHETICS & ORTHOTICS WEST INC,9164525724,SACRAMENTO,CA,95816,"1248 32ND ST, SACRAMENTO, CA, 95816",True,38.57001335700005,-121.46440849899994
1548460249,"HANGER PROSTHETICS & ORTHOTICS WEST, INC.",9164056300,SACRAMENTO,CA,95823,"7551 TIMBERLAKE WY, SACRAMENTO, CA, 95823",False,,
1821298373,ADVANCED ORAL DIAGNOSIS & TREATMENT CENTER,9258378048,DANVILLE,CA,94526,"400 EL CERRO BLVD, DANVILLE, CA, 94526",True,37.82875841300006,-122.00241987499999
1568662260,"HANGER PROSTHETICS & ORTHOTICS WEST, INC.",9169845606,FOLSOM,CA,95630,"1743 CREEKSIDE DR, FOLSOM, CA, 95630",True,38.67187806900006,-121.14033388599995
1548457278,TEAM MAKENA LLC,8009964001,COSTA MESA,CA,92626,"130 MCCORMICK AVE, COSTA MESA, CA, 92626",False,,
1134305972,A HOMECARE DEVICE INC,8007579797,LOS ANGELES,CA,90042,"5739 YORK BLVD, LOS ANGELES, CA, 90042",True,34.118772308000075,-118.19311853299996
1467635367,"GARY M BERKE MS, CP",6503655861,SAN MATEO,CA,94404,"2001 WINWARD WAY, SAN MATEO, CA, 94404",False,,
1346569175,ESSENTIAL ORTHOTICS & PROSTHETICS,6617233700,PALMDALE,CA,93551,"41758 12TH ST W, PALMDALE, CA, 93551",True,34.642242675000034,-118.15133503399994
1467727727,"PACIFIC MEDICAL, INC.",4082179387,SAN JOSE,CA,95128,"123 DI SALVO AVE, SAN JOSE, CA, 95128",True,37.32665232000005,-121.93710876999995
1720518798,"PROSTHETIC & ORTHOTIC GROUP ORANGE COUNTY, LLC",9492422237,MISSION VIEJO,CA,92691,"26300 LA ALAMEDA, MISSION VIEJO, CA, 92691",True,33.56516788400006,-117.66641663399997
1447594700,"PETER HARSCH PROSTHETICS, LLC",8584040733,SAN DIEGO,CA,92121,"5995 MIRA MESA BLVD, SAN DIEGO, CA, 92121",True,32.89801042100004,-117.19163401699996
1073567467,PROFESSIONAL ORTHOPEDIC SYSTEMS OF AUBURN,5308852712,AUBURN,CA,95603,"1237 GRASS VALLEY HWY, AUBURN, CA, 95603",True,38.92363729700003,-121.083695423
1164013561,"PROFESSIONAL ORTHOPEDIC SYSTEMS OF SACRAMENTO, LLC",9163313537,SACRAMENTO,CA,95823,"5601 66TH AVE, SACRAMENTO, CA, 95823",True,38.49244714400004,-121.44000889399996
1821083163,"PROFESSIONAL ORTHOPEDIC SYSTEMS OF SACRAMENTO, LLC",9163313537,SACRAMENTO,CA,95841,"5049 COLLEGE OAK DR, SACRAMENTO, CA, 95841",True,38.65872524400004,-121.350541626
1639404015,"SOUTHERN CALIFORNIA PROSTHETICS, INC.",9498925338,SANTA ANA,CA,92701,"1801 PARKCOURT PL, SANTA ANA, CA, 92701",True,33.74988562100003,-117.84225827499995
1891873006,"LIMB CRAFT, INC.",7146260417,FULLERTON,CA,92831,"810 E CHAPMAN AVE, FULLERTON, CA, 92831",True,33.87404590800003,-117.91144945299999
1881877363,"JONATHAN I. MACY, MD",3106572777,LOS ANGELES,CA,90048,"8635 W 3RD ST, LOS ANGELES, CA, 90048",True,34.073584303000075,-118.380668362
1851028500,GLORIOUS STRANDS,6193706743,LA MESA,CA,91942,"7761 UNIVERSITY AVE, LA MESA, CA, 91942",True,32.76196868900007,-117.03062481099994
1760119168,CENTRAL VALLEY ORTHOTIC AND PROSTHETIC,5594263001,FRESNO,CA,93727,"2039 N FINE AVE, FRESNO, CA, 93727",True,36.76915997100008,-119.72843205999999
1740367085,ONLY GRACE INC,8587596325,RANCHO SANTA FE,CA,92091,"5535 CANCHA DE GOLF, RANCHO SANTA FE, CA, 92091",False,,
1346969318,THE EVOLVE EFFECT,9099066774,UPLAND,CA,91786,"920 N CENTRAL AVE, UPLAND, CA, 91786",False,,
1669844650,"KERN MEDICAL SUPPLY, LLC",6613934877,BAKERSFIELD,CA,93308,"2520 PEGASUS DR, BAKERSFIELD, CA, 93308",True,35.438159029000076,-119.07092365499994
1386930873,"DIABLO PROSTHETICS & ORTHOTICS, INC",9257559507,ANTIOCH,CA,94509,"2157 COUNTRY HILLS DR, ANTIOCH, CA, 94509",True,37.97024519100006,-121.78399745299998
1639173537,SPECTRUM PROSTHETICS & ORTHOTICS OF REDDING INC,5302434500,REDDING,CA,96001,"1844 SOUTH ST, REDDING, CA, 96001",True,40.57945974900008,-122.39488809199997
1174981989,"HANGER PROSTHETICS & ORTHOTICS WEST, INC.",9512961894,TEMECULA,CA,92590,"41707 WINCHESTER RD, TEMECULA, CA, 92590",True,33.518495511000026,-117.16794379199996
1487665212,"HANGER PROSTHETICS & ORTHOTICS WEST, INC.",9517813011,RIVERSIDE,CA,92506,"6840 INDIANA AVE, RIVERSIDE, CA, 92506",True,33.94252741400004,-117.39257865599996
1982615712,"HANGER PROSTHETICS & ORTHOTICS WEST, INC..",9517341835,NORCO,CA,92860,"680 PARKRIDGE AVE, NORCO, CA, 92860",True,33.89807686700004,-117.56798860999999
1629142500,HANGER PROSTHETICS & ORTHOTICS WEST INC,7144643436,TUSTIN,CA,92780,"1101 BRYAN AVE, TUSTIN, CA, 92780",True,33.742828804000055,-117.81511654999997
1568185874,"SG HOMECARE, INC",9494742050,ANAHEIM,CA,92806,"1530 S SINCLAIR ST, ANAHEIM, CA, 92806",True,33.806753643000036,-117.88392750899999
1225102379,HANGER PROSTHETICS & ORTHOTICS WEST INC,9252745980,WALNUT CREEK,CA,94598,"350 N WIGET LN, WALNUT CREEK, CA, 94598",False,,
1629350178,STANCE PROSTHETICS & ORTHOTICS LLC,7148523756,SANTA ANA,CA,92701,"1125 E 17TH ST, SANTA ANA, CA, 92701",True,33.76004482800005,-117.85519424299997
1508589177,LEFT COAST SPORTS INNOVATIONS LLC,8553968800,LOS ANGELES,CA,90015,"403 E WASHINGTON BLVD, LOS ANGELES, CA, 90015",True,34.02956573900008,-118.26122675199997
1699884221,PT IN MOTION,8585656910,SAN DIEGO,CA,92123,"5473 KEARNY VILLA RD, SAN DIEGO, CA, 92123",True,32.83466791800004,-117.13837297199996
1629476510,"RESTORE MEDICAL, INC.",5306054292,REDDING,CA,96001,"2160 COURT ST, REDDING, CA, 96001",True,40.57713864700003,-122.39318277699999
1770209538,"CRANIAL TECHNOLOGIES, INC.",8444475894,IRVINE,CA,92618,"114 PACIFICA, IRVINE, CA, 92618",True,33.659884171000044,-117.75429641099998
1679976393,NORELL PROSTHETICS ORTHOTICS INC.,5107709010,FREMONT,CA,94539,"48521 WARM SPRINGS BLVD, FREMONT, CA, 94539",True,37.46860040100006,-121.91736657399997
1649638701,NORELL PROSTHETICS ORTHOTICS INC.,5107709010,SAN DIEGO,CA,92123,"5466 COMPLEX ST, SAN DIEGO, CA, 92123",True,32.83347594800006,-117.13467083999996
1376818070,"SPECTRUM ORTHOTICS AND PROSTHETICS, INC",5305389500,OROVILLE,CA,95966,"2275 MYERS ST, OROVILLE, CA, 95966",True,39.50710627400008,-121.55143450399999
1841398047,"SPECTRUM ORTHOTICS AND PROSTHETICS, INC",5308921017,CHICO,CA,95926,"2170 ESPLANADE, CHICO, CA, 95926",True,39.74995557900007,-121.85464364599994
1851760086,SPECTRUM O & P OF SANTA ROSA,7075288858,SANTA ROSA,CA,95404,"95 MONTGOMERY DR, SANTA ROSA, CA, 95404",False,,
1467797191,"SPECTRUM ORTHOTICS AND PROSTHETICS, INC.",5304188338,YUBA CITY,CA,95991,"887 PLUMAS ST, YUBA CITY, CA, 95991",True,39.14184363500004,-121.61769555099994
1164130852,"VAST MEDICAL SOLUTIONS, LLC",8885513519,YORBA LINDA,CA,92887,"24835 LA PALMA AVE, YORBA LINDA, CA, 92887",True,33.87395397500006,-117.70878925299996
1124738257,ABLE ORTHO CLINIC INC,9515318035,CORONA,CA,92879,"1411 RIMPAU AVE, CORONA, CA, 92879",True,33.869900854000036,-117.54978776499996
1053775502,ADVANCED ARTIFICIAL EYES,8187581666,TARZANA,CA,91356,"18455 BURBANK BLVD, TARZANA, CA, 91356",True,34.172326474000045,-118.53504533599994
1235310699,"VISIONQUEST INDUSTRIES, INC.",9492613000,VISTA,CA,92081,"1390 DECISION ST, VISTA, CA, 92081",True,33.139551588000074,-117.22493532399994
1881855393,"VISION QUEST INDUSTRIES, INC.",9492613000,VISTA,CA,92081,"1390 DECISION ST, VISTA, CA, 92081",True,33.139551588000074,-117.22493532399994
1639238819,"VISIONQUEST INDUSTRIES, INC.",9492613000,VISTA,CA,92081,"1390 DECISION ST, VISTA, CA, 92081",True,33.139551588000074,-117.22493532399994
1114388824,OROVILLE HOSPITAL,5305338500,OROVILLE,CA,95966,"2767 OLIVE HWY, OROVILLE, CA, 95966",True,39.50444192000003,-121.54195008799996
1992830905,REGENTS OF THE UNIV OF CA,9167349200,SACRAMENTO,CA,95817,"2315 STOCKTON BLVD, SACRAMENTO, CA, 95817",True,38.55367692900006,-121.45683673599996
1750455630,HANGER PROSTHETICS & ORTHOTICS WEST INC,9257541804,ANTIOCH,CA,94531,"4849 LONE TREE WAY, ANTIOCH, CA, 94531",True,37.96437346300007,-121.77461221399994
1740887462,A-Z CONSULTING O & P SERVICES,9164744734,ROSEVILLE,CA,95678,"198 CIRBY WAY, ROSEVILLE, CA, 95678",True,38.72930120800004,-121.29998030899998
1871668566,"ALLIANCE PROSTHETICS & ORTHOTICS, INC.",5629451111,WHITTIER,CA,90602,"12458 WASHINGTON BLVD, WHITTIER, CA, 90602",True,33.967604906000076,-118.04628648699997
1720076912,AVOP-ANTELOPE VALLEY ORTHOTICS & PROSTHETICS,6612670772,PALMDALE,CA,93551,"525 COMMERCE AVE, PALMDALE, CA, 93551",True,34.58964218800003,-118.14098355499999
1003804071,R AND J PROSTHETIC APPLIANCE CO. INC.,8056434063,VENTURA,CA,93003,"2407 E MAIN ST, VENTURA, CA, 93003",True,34.275932916000045,-119.264035993
1215945514,"HANGER PROSTHETICS & ORTHOTICS WEST, INC.",5104906400,FREMONT,CA,94538,"3155 KEARNEY ST, FREMONT, CA, 94538",True,37.54920792300004,-121.97465880099998
1114632858,"R AND J PROSTHETIC APPLIANCE COMPANY, INC.",8056581822,VENTURA,CA,93003,"4517 MARKET ST, VENTURA, CA, 93003",True,34.257247465000034,-119.23209224599998
1184339574,R AND J PROSTHETIC APPLIANCE CO. INC.,8056581822,VENTURA,CA,93003,"4517 MARKET ST, VENTURA, CA, 93003",True,34.257247465000034,-119.23209224599998
1841905106,"CRANIAL TECHNOLOGIES, INC.",8444475894,TEMECULA,CA,92591,"27555 YNEZ RD, TEMECULA, CA, 92591",True,33.50527868700004,-117.14989327999996
1336854421,"MAYVENN, INC",8552876868,OAKLAND,CA,94612,"2201 BROADWAY, OAKLAND, CA, 94612",True,37.81098312900008,-122.26714379699996
1063902708,"ACTIVE LIFE, LLC",9097480168,REDLANDS,CA,92373,"255 TERRACINA BLVD, REDLANDS, CA, 92373",True,34.03765482500006,-117.20524742999999
1073162244,"ACTIVE LIFE, LLC",5623049866,LAKEWOOD,CA,90805,"3300 E SOUTH ST, LAKEWOOD, CA, 90805",True,33.860197396000046,-118.15373776599995
1154986750,"ACTIVE LIFE, LLC",2138144062,LOS ANGELES,CA,90020,"3407 W 6TH ST, LOS ANGELES, CA, 90020",True,34.063601077000044,-118.29560381599998
1174293997,"ACTIVE LIFE, LLC",9516980505,MURRIETA,CA,92562,"25405 HANCOCK AVE, MURRIETA, CA, 92562",True,33.558791333000045,-117.18513563599998
1215983366,"ACTIVE LIFE, LLC",8184954610,GLENDALE,CA,91206,"1577 E CHEVY CHASE DR, GLENDALE, CA, 91206",True,34.153310899000076,-118.22948771899996
1497264733,"ACTIVE LIFE, LLC",9493642773,MISSION VIEJO,CA,92691,"26800 CROWN VALLEY PKWY, MISSION VIEJO, CA, 92691",True,33.56335625300005,-117.66599386099995
1568961977,"ACTIVE LIFE, LLC",6267276455,WEST COVINA,CA,91790,"1135 S SUNSET AVE, WEST COVINA, CA, 91790",True,34.061453554000025,-117.94602354699998
1689942294,"ACTIVE LIFE, LLC",7146026436,ORANGE,CA,92868,"2140 W CHAPMAN AVE, ORANGE, CA, 92868",True,33.78787962300004,-117.87664241799996
1902852056,"ACTIVE LIFE, LLC",8188359441,NORTHRIDGE,CA,91325,"18433 ROSCOE BLVD, NORTHRIDGE, CA, 91325",True,34.22075954200005,-118.53450558799994
1942865605,"ACTIVE LIFE, LLC",7605156311,APPLE VALLEY,CA,92307,"16008 KAMANA RD, APPLE VALLEY, CA, 92307",True,34.542400935000046,-117.27175896899996
1952609661,"ACTIVE LIFE, LLC",6194886196,SAN DIEGO,CA,92123,"7910 FROST ST, SAN DIEGO, CA, 92123",True,32.800260544000025,-117.15438830799997
1952765711,"ACTIVE LIFE, LLC",3233528319,LOS ANGELES,CA,90033,"1700 E CESAR E CHAVEZ AVE, LOS ANGELES, CA, 90033",True,34.05114383100005,-118.21748839399999
1912339474,"ALEXANDER PROSTHETICS & ORTHOTICS, INC",3106749179,INGLEWOOD,CA,90301,"660 E REGENT ST, INGLEWOOD, CA, 90301",True,33.964525854000044,-118.34443242699996
